country,city,street_name,street_number,postal_code
Poland,Łodygowice,Porter,0,34-325
China,Gaozhuang,Spohn,3,
Poland,Lisia Góra,Kings,0,33-140
South Africa,Piketberg,Marquette,145,8115
United States,Fresno,Dawn,9028,93715
China,Liuzhuang,Riverside,49646,
France,La Roche-sur-Yon,Macpherson,347,85928 CEDEX 9
United States,Santa Barbara,Fisk,66,93106
Germany,Wuppertal,Maywood,80,42285
China,Shangma,Lighthouse Bay,43955,
Canada,Killam,Rigney,27625,A0A
Ukraine,Nyzhni Petrivtsi,Artisan,2,
China,Zhaowanzhuang,Continental,5,
Norway,Oslo,Esker,55,0403
Thailand,Mukdahan,Hoard,73,49160
Iran,Torbat-e Jām,Kennedy,7,
Indonesia,Teongtoda,Maywood,872,
China,Jiangkou,East,73,
Portugal,Manadas,Hagan,6262,9800-026
Indonesia,Cipari,Monica,9480,
Philippines,Angono,Victoria,3592,1930
Indonesia,Wates,Acker,58848,
China,Annan,Eastlawn,0,
Ivory Coast,Boundiali,Monument,74,
Armenia,Jrashen,Victoria,605,
Netherlands,Hilversum,Hudson,73,1209
China,Dasuhe,Mcbride,4377,
Nigeria,Dambarta,Debs,5,
Brazil,Brotas,Northridge,7,17380-000
France,Floirac,Waxwing,920,33274 CEDEX
China,Xubu,Donald,22,
China,Luwu,Summerview,7370,
Indonesia,Waerana,Muir,3,
Russia,Rzhev,Kinsman,57413,172389
Myanmar,Kyaikto,Bluejay,8,
Mexico,Reforma,Thompson,75612,32600
Finland,Varkaus,Blackbird,7,78900
China,Xingfu,Gateway,63,
Indonesia,Tanenofunan,School,61,
France,Cergy-Pontoise,Grasskamp,44223,95011 CEDEX
Antigua and Barbuda,Piggotts,Cody,3381,
Poland,Świnice Warckie,6th,34,99-140
Russia,Temirgoyevskaya,Green Ridge,77,352403
China,Xiaolukou,Aberg,7348,
United States,Cincinnati,Dottie,3,45249
Vietnam,Tiên Lãng,Esker,24723,
Canada,Whitehorse,Artisan,596,Y1A
Peru,Querecotillo,Blackbird,3572,
China,Songying,Rowland,4,
Uzbekistan,Kirgili,Katie,58,
Philippines,Taguisa,Marcy,826,4706
Russia,Yakovlevo,Messerschmidt,11,215723
Philippines,Usab,Surrey,938,6127
Greece,Saronída,Pankratz,4705,
China,Anren Chengguanzhen,Ilene,1,
Norway,Oslo,Marcy,63,0873
Ukraine,Bila Krynytsya,Old Gate,7626,
China,Hepu,Summerview,428,
South Korea,Kwangmyŏng,Del Mar,257,
Pakistan,Khurriānwāla,Barnett,22,26301
Mayotte,Dzaoudzi,Myrtle,15,97615
Indonesia,Cikiruh Wetan,Park Meadow,48,
China,Wenshui,Waxwing,7,
Brazil,Nova Viçosa,Lighthouse Bay,3,45920-000
Philippines,Laguilayan,Algoma,902,2402
Greece,Kyprínos,Everett,34,
Indonesia,Makui,Autumn Leaf,98752,
China,Shuishaping,Westridge,49725,
Indonesia,Pancanagara,Mariners Cove,95899,
Tunisia,Sidi Bouzid,Sauthoff,7,
Indonesia,Muyaka,Park Meadow,7,
Kenya,Rongai,Killdeer,1,
Japan,Kobayashi,Chinook,3,999-6735
United States,Seattle,Kensington,60,98140
Portugal,Ul,Pleasure,98961,3720-583
China,Taoyang,Marquette,19699,
Russia,Rameshki,Caliangt,1,171439
Netherlands,Hoorn,Clove,89,1624
Albania,Fier-Çifçi,Thackeray,3504,
Indonesia,Takengon,Fremont,274,
China,Shazhuang,David,4189,
United States,Independence,Gale,89350,64054
Canada,Carleton-sur-Mer,Bowman,4350,P0T
Serbia,Radenković,Atwood,39,
Indonesia,Banjar Banyuning Barat,Nova,697,
Portugal,Infantas,Lyons,11,4810-578
Finland,Inari,Pierstorff,6,99871
Ivory Coast,Arrah,Gerald,52,
Indonesia,Tembang,Fremont,9301,
Bosnia and Herzegovina,Stupari,Golf Course,880,
China,Jianping,Lien,22,
Venezuela,Tucaní,Hoard,68463,
Portugal,Amor,Hoepker,601,2400-772
China,Si’erbao,5th,692,
Argentina,Pozo Hondo,Hallows,9489,3714
China,Toufang,Pankratz,1667,
Indonesia,Cileles,Parkside,3093,
Dominica,Portsmouth,Golf,629,
Chile,Penco,Farwell,727,
Ukraine,Kamennyye Potoki,Knutson,4,
Sweden,Mölndal,Acker,7,431 87
Philippines,Caronoan West,Lerdahl,40963,5420
China,Yanggu’ao,Pleasure,60,
Palestinian Territory,Qalqīlyah,Hallows,2924,
Morocco,Brikcha,Lindbergh,8860,
Vietnam,Krông Kmar,Continental,18,
Argentina,Pampa de los Guanacos,Morrow,96,3181
Ireland,Gorey,Stang,14,Y25
China,Huichang,Scott,97,
Poland,Mrozy,Pleasure,37,05-320
Indonesia,Babakanlapang,Pine View,23243,
Indonesia,Kasreman,Eastwood,34,
Yemen,Al ‘Ashshah,Leroy,37,
China,Wangping,Gerald,97498,
Venezuela,Altagracia de Orituco,Old Shore,5,
South Africa,Orkney,Vermont,9,2627
Tunisia,Radès,Victoria,7,
Brazil,Tupã,Thackeray,9640,17600-000
Indonesia,Genting,Anzinger,6,
China,Wuyao,Shasta,38453,
Sweden,Karlstad,Kings,8,651 11
France,Bayonne,Forest Dale,8,64185 CEDEX
China,Hekou,Sherman,0,
Egypt,Kawm Umbū,Welch,6107,
China,Nanshi,Kipling,8,
Sweden,Nässjö,Barby,26,571 36
Ukraine,Kodra,Tomscot,5,
China,Yangjiaqiao,Helena,88149,
Norway,Sandefjord,Vermont,6,3225
Philippines,Bangan-Oda,High Crossing,166,2408
Indonesia,Krajan Kerjo,Sheridan,4143,
Vietnam,Haiphong,Barby,85,
Poland,Warlubie,Delaware,49302,86-160
Uzbekistan,Chimboy Shahri,Sutteridge,1601,
Tanzania,Tukuyu,Toban,88,
Indonesia,Bedayu,Oakridge,56148,
Ireland,Ballinroad,Upham,7965,D07
Philippines,San Agustin,6th,50,8305
Central African Republic,Mobaye,Melvin,143,
Canada,Drayton Valley,Bay,87679,T7A
Brazil,Arroio Grande,Veith,8,96330-000
Peru,Pucyura,Northview,2473,
Argentina,Candelaria,Burrows,335,3308
Afghanistan,Būrkah,Straubel,499,
Russia,Somovo,Maple Wood,95314,396336
China,Fankeng,Scott,965,
Mexico,Anahuac,Chive,348,92035
China,Tieling,Ramsey,7,
China,Jiangtun,Pond,69,
Kazakhstan,Karabas,Lerdahl,874,
Finland,Savonlinna,Russell,6396,57810
China,Jiacun,Dorton,11614,
Portugal,Barroco,Pearson,43575,4650-576
United States,Washington,Susan,0,20337
Mongolia,Öldziyt,Golden Leaf,15,
Russia,Klimovsk,Eliot,43,152014
France,Frontignan,Buena Vista,8,34114 CEDEX
Iran,Behābād,Hovde,4567,
Portugal,Calçada,Rowland,396,4930-345
Latvia,Līgatne,Grover,734,
Portugal,Penha Longa,Anderson,693,4625-347
Portugal,Fontinha,Anthes,3399,3060-323
Japan,Inawashiro,Charing Cross,7,969-3288
France,Lille,Eggendart,15965,59002 CEDEX
China,Kambaxoi,Lakeland,97181,
Poland,Miedzichowo,Maple Wood,2587,64-361
China,Puning,Gulseth,861,
China,Yangjiafang,Annamark,2470,
Thailand,Phon Phisai,Tony,71315,43120
Poland,Żórawina,Ronald Regan,4368,55-020
Nigeria,Gwandu,Kings,3560,
Indonesia,Nggesa,Acker,8,
Poland,Krzeszów,Grasskamp,62,58-405
China,Lian,Straubel,8259,
Philippines,Gammad,Cascade,362,3503
China,Jiangyou,Donald,8249,
Cambodia,Phnom Penh,Ludington,3983,
Colombia,Flandes,Hallows,2469,733517
Mozambique,Inhambane,Sachs,140,
Indonesia,Munduk,Hovde,723,
China,Zhongdong,Forest Dale,6,
Portugal,Calvário,Mcbride,79297,3740-228
France,Toulouse,Warbler,8,31931 CEDEX 9
Armenia,Mets Parni,Drewry,3,
Poland,Świlcza,Doe Crossing,2675,36-072
Malaysia,Pulau Pinang,American,7038,10612
China,Liucun,Southridge,3836,
Russia,Shar’ya,Park Meadow,3,157510
Brazil,Peabiru,Parkside,655,87250-000
Sudan,Rabak,Troy,28,
France,Fresnes,Sachs,278,94264 CEDEX
Togo,Badou,Cody,59036,
France,Courtaboeuf,Farragut,2,91948 CEDEX
Burkina Faso,Boulsa,Glendale,60354,
Colombia,Baranoa,Service,95390,082028
Colombia,Ciudad Bolívar,Fallview,449,056468
China,Oroqen Zizhiqi,Ridgeway,392,
Albania,Rrapë,Harper,2507,
South Africa,Kakamas,Chinook,41457,8874
Cuba,Jobabo,Riverside,437,
Egypt,Al Jīzah,Oakridge,79,
Colombia,Nariño,Service,29,252837
Niger,Birni N Konni,Acker,693,
Indonesia,Sukasirna,Brickson Park,6,
United States,Harrisburg,Valley Edge,35361,17126
Mexico,Lazaro Cardenas,Crownhardt,8,87326
Philippines,Bacungan,Blaine,234,9216
Poland,Czeremcha,Gina,51493,17-240
Venezuela,Cabudare,American,95,
China,Hefu,Gulseth,1962,
China,Sidu,Village,61600,
Luxembourg,Niederanven,Menomonie,41,L-6948
China,Aotou,High Crossing,76294,
South Korea,Uijeongbu-si,Hanover,8,
China,Gezan,Pawling,8,
Russia,Yaroslavl,Warrior,68723,302025
China,Qinnan,Corry,42335,
Indonesia,Ketawang,Killdeer,37814,
Japan,Kodamachō-kodamaminami,Mayer,9,375-0054
Indonesia,Siak Sri Indrapura,Hansons,9,
Sweden,Hisings Kärra,Elka,23,425 65
Azerbaijan,Barda,Hagan,9,
Indonesia,Semongkat,Carberry,619,
China,Jiangqiao,Mockingbird,7,
China,Yuyangguan,Lunder,4,
Chile,Lampa,Westend,4,
China,Gedian,Lighthouse Bay,4,
Peru,Caujul,Ohio,8582,
China,Daqiao,Old Shore,79,
Venezuela,Santa Bárbara,Superior,5898,
Portugal,Barreiro,Hanson,436,4950-642
Mongolia,Undurkhaan,Dahle,94889,
Indonesia,Cingambul,Talmadge,93,
Philippines,Perrelos,Almo,66,6017
Indonesia,Banjar Swastika,Sachs,36936,
China,Dinghuo,Longview,5452,
Mongolia,Bayan-Ovoo,Lerdahl,53235,
Philippines,Ondoy,Monica,3,5607
United States,Chicago,Mcguire,3,60609
Guatemala,Zunilito,Schurz,32356,10009
Israel,Kafr Mandā,Macpherson,1,
Philippines,Balading,Annamark,973,4005
Brazil,Nanuque,Forest,9,39860-000
Indonesia,Karang Tengah,Orin,53084,
Armenia,Bagratashen,Oak Valley,1822,
Russia,Kudara-Somon,Eggendart,93113,671836
China,Shihuajian,Johnson,4334,
Poland,Dobrzeń Wielki,Sommers,6972,46-081
Nigeria,Buni Yadi,Florence,49512,
China,Shigu,Walton,3,
Ukraine,Kivsharivka,Dapin,3,
China,Erong,Waubesa,1000,
Brazil,Paranapanema,Ryan,4,18720-000
Poland,Choszczno,Bowman,8324,73-201
Japan,Ōmachi,Lotheville,56307,399-8604
Japan,Katsuta,Mallory,3,927-2162
Nigeria,Gwandu,Superior,8,
Sweden,Göteborg,Straubel,1466,403 20
China,Luyang,Debra,6,
Argentina,Neuquén,Roth,585,8300
Russia,Shimorskoye,Red Cloud,4641,607036
Greece,Galatás,Oakridge,2251,
Mauritius,Chemin Grenier,Veith,1024,
China,Kalayemule,Melby,1560,
Ecuador,Pedro Carbo,Rusk,192,
China,Guoduwan,Gulseth,7490,
United States,Durham,Saint Paul,297,27710
Portugal,Cavalões,Bayside,64,4760-421
Libya,Zalţan,Kingsford,90433,
China,Liutao,Dahle,149,
Ecuador,Azogues,Pennsylvania,1395,
Philippines,Lamak,Esch,4,8608
China,Laojunmiao,Lien,927,
Russia,Petrovsk,Northview,5,412545
China,Meishan,Kropf,85,
Indonesia,Sengeti,Atwood,0,
Iran,Sanandaj,Lillian,5,
Indonesia,Kloangpopot,Johnson,726,
Portugal,Tabuaço,Westend,96886,5120-384
Portugal,Chãos,Menomonie,16,4960-160
Azerbaijan,Zaqatala,Aberg,53343,
Afghanistan,Jurm,Stoughton,1,
Bosnia and Herzegovina,Gornje Moštre,Hauk,22,
Colombia,Cantagallo,Emmet,0,135067
Argentina,El Galpón,Fisk,2029,4446
Ukraine,Bolhrad,Lotheville,9,
Poland,Wińsko,Lake View,37288,56-160
Indonesia,Montasik,Grover,7,
Indonesia,Walenrang,Fallview,2538,
Argentina,Campo Quijano,Rutledge,5,4407
Philippines,Batasan Bata,Hoepker,53,3010
Russia,Shkurinskaya,Union,1380,352000
Slovenia,Preserje pri Radomljah,Hanover,13,1241
Indonesia,Pining,Maryland,460,
Indonesia,Sindangheula,Moose,29,
Nigeria,Nnewi,Melody,73406,
Guatemala,Jalpatagua,Nevada,8,22012
Philippines,Calidñgan,Crownhardt,3651,1805
Russia,Vydreno,Carpenter,8177,425399
Armenia,Arevik,Veith,37434,
China,Shangjing,Sycamore,21,
Mongolia,Tsagaanders,Coleman,9698,
Guatemala,Concepción,Harbort,58,07023
China,Hushi,Sherman,3780,
China,Baisha,Schurz,78,
China,Zhutang,Brickson Park,28281,
Sweden,Mariestad,Rusk,150,542 95
Indonesia,Lakateng,Grim,6260,
China,Yanghou,Kings,0,
Portugal,Candelária,Helena,717,9950-125
France,Compiègne,Melby,5,60204 CEDEX
China,Hecun,Clarendon,73495,
Indonesia,Somorpenang,Spohn,8574,
Indonesia,Oli,Buena Vista,2,
Japan,Sagara,Stephen,6383,421-0522
Russia,Aleksandrovskiy Zavod,Kropf,85,356024
Kazakhstan,Stepnogorsk,Algoma,53,
Portugal,Moita da Roda,Bonner,585,2425-839
Vietnam,Chư Prông,7th,4828,
American Samoa,Leone,Fairview,1,96799
Brazil,Floriano,Homewood,97336,64800-000
France,Boulogne-Billancourt,Hintze,0,92511 CEDEX
Portugal,Cardal,Londonderry,11540,2260-510
Mexico,San Antonio,Kings,65435,72089
Philippines,Tambalisa,Lukken,7608,8513
Brazil,Jaguarão,Scoville,6989,96300-000
Canada,Nackawic,Menomonie,577,E6G
Colombia,San Francisco,Anthes,721,253608
Sweden,Kungshamn,Texas,896,456 42
France,Montpellier,Susan,55,34194 CEDEX 5
France,Rezé,Summer Ridge,73,44409 CEDEX
Luxembourg,Lamadelaine,Mallard,34758,L-4888
Sweden,Stockholm,Texas,69454,118 55
Philippines,Nugas,Barnett,380,3102
Czech Republic,Černý Most,Gateway,8,198 00
Japan,Uozu,Jay,9589,938-0049
China,Linxi,Judy,1720,
Russia,Zelenodolsk,Dottie,1,422549
Greece,Féres,Harbort,3,
China,Dingtou,Loftsgordon,5,
Brazil,Lençóis Paulista,Lakewood,9382,18680-000
Malaysia,Petaling Jaya,Alpine,3407,46675
Czech Republic,Červené Pečky,Rusk,65,281 21
Iran,Sanandaj,Sauthoff,24544,
Morocco,Tit Mellil,Sunfield,2,
France,Châtellerault,Oak Valley,6473,86104 CEDEX
Portugal,Belverde,Hoepker,772,2845-487
Greece,Kallíthiron,Hanson,63,
China,Shiyaogou,Service,4687,
China,Dasha,Eagle Crest,8991,
Greece,Aiánteio,Green,27830,
Iran,Farmahīn,Pleasure,559,
Finland,Turenki,Comanche,3,14201
China,Fengtai Chengguanzhen,Del Sol,661,
China,Zhangbei,Mandrake,3994,
Philippines,Santa Maria,Shopko,970,8011
China,Heshang,Artisan,32,
Nigeria,Runka,Debra,6243,
Russia,Sernovodsk,Hooker,9,446533
Bosnia and Herzegovina,Dobrljin,Rigney,46,
Honduras,El Progreso,Reindahl,859,
China,Lingyang,Dorton,591,
Syria,Şaydnāyā,Anzinger,97,
United States,Houston,Swallow,70,77260
Israel,Qiryat Motzkin,Summit,80726,
Indonesia,Umburarameha,Annamark,5,
Sweden,Nyköping,Monument,9424,611 24
Namibia,Grootfontein,Londonderry,92,
Netherlands,Soest,Maple Wood,7887,3764
Peru,Huancaray,Cordelia,111,
Egypt,Al Ibrāhīmīyah,Hauk,4679,
Philippines,Victoria,Corry,353,6406
Philippines,Alannay,Hovde,72,3524
Canada,Aldergrove,Lighthouse Bay,60,V4W
Philippines,Tulay na Lupa,Bashford,80,4612
Nigeria,Minna,Sachs,7,
Uganda,Amolatar,East,925,
China,Dahedian,Crescent Oaks,5,
France,Istres,Sloan,2,13802 CEDEX
South Africa,Ventersdorp,Rigney,798,2712
Palau,Koror Town,Beilfuss,56538,
Kazakhstan,Urzhar,Hanover,5,
Philippines,Alacaygan,Carberry,7,1212
Tunisia,Tataouine,Harbort,84342,
Lithuania,Eišiškės,2nd,60920,17017
Honduras,Joconal,Northwestern,5959,
Ireland,Askeaton,Mendota,363,P51
Chile,Curanilahue,Kropf,92,
Indonesia,Krajan Tegalombo,Village Green,7347,
Finland,Rautjärvi,Reinke,59530,56610
Japan,Kamigyō-ku,Pepper Wood,22,612-8447
Poland,Stoczek,Jackson,9,07-104
China,Yeping,Merchant,4,
China,Changtan,Calypso,38678,
Canada,Prévost,Grim,433,T7Z
Russia,Tyoply Stan,Fuller,782,391237
Russia,Sal’sk,Oakridge,40219,347639
Nigeria,Madagali,Hoepker,7,
Philippines,Taytayan,Fallview,50,1470
Serbia,Niška Banja,Kensington,46152,
Vietnam,Nam Đàn,Stephen,1,
Ivory Coast,Odienné,Crest Line,48,
China,Juxing,Spaight,7,
United States,Phoenix,Lindbergh,61,85062
Indonesia,Mandala,Hanson,3331,
Poland,Frydek,Sutherland,1,43-229
Dominican Republic,Padre Las Casas,Bultman,8815,10702
Ukraine,Lyubashivka,Petterle,3,
Brazil,Porto Velho,Dixon,3,78900-000
Japan,Fujinomiya,Loftsgordon,6183,421-3305
China,Xilaiqiao,Farwell,35,
Indonesia,Nobo,Ohio,71858,
United States,Santa Ana,5th,6281,92725
China,Mianduhe,Roxbury,56,
Russia,Zelenodolsk,West,7546,422549
Indonesia,Krajan,Steensland,65944,
Czech Republic,Golčův Jeníkov,Sugar,9,582 82
Sweden,Ekerö,Service,3,178 32
France,Épinal,Sullivan,80066,88099 CEDEX 9
Madagascar,Tsiombe,Mosinee,8020,
Poland,Święciechowa,Quincy,4,64-115
China,Jinggongqiao,Sutherland,4916,
Peru,Barranca,6th,6,
Mongolia,Sergelen,Village Green,8629,
United States,Anchorage,Union,89018,99507
Sweden,Skoghall,Pierstorff,178,663 30
China,Chaodi,Vermont,33,
Slovenia,Lucija,American Ash,410,6333
France,Blaye,Columbus,25,33394 CEDEX
Slovenia,Cerklje na Gorenjskem,Westerfield,112,4207
Uzbekistan,Yaypan,Talisman,6,
Philippines,Balaoang,Burrows,92178,2509
Peru,Chignayhua,Tomscot,806,
Indonesia,Belang,Mitchell,46,
China,Futang,Walton,78,
China,Liurenba,Lighthouse Bay,626,
Philippines,San Casimiro,Corry,596,4332
Czech Republic,Holýšov,Lotheville,13645,345 62
United States,San Antonio,High Crossing,79868,78205
Greece,Velestíno,Tony,4,
China,Shunyi,Sage,1,
China,Qinling Jieban,Barby,0,
Brazil,Cupira,Hanson,98,55460-000
Brazil,Aracruz,Sauthoff,16,29190-000
Philippines,Mantang,Dawn,38607,6816
Israel,Rosh Ha‘Ayin,Lakeland,7,
China,Chengzhong,Green Ridge,606,
Indonesia,Tumpukrenteng,Manley,60380,
South Korea,Kinzan,Carey,944,
Austria,Sankt Lorenzen im Mürztal,Upham,394,8644
China,Yuyang,Eggendart,1,
China,Beigucheng,Mcbride,8,
Indonesia,Bun Barat,Valley Edge,92781,
Indonesia,Kalibuntu,Park Meadow,90,
Guatemala,San Antonio Ilotenango,Laurel,31676,14008
Yemen,Al Ḩudaydah,Golf Course,77950,
China,Zhanggongmiao,Nelson,1649,
Portugal,Foz do Arelho,Hoard,587,2500-454
Croatia,Galovac,Northview,22325,43000
China,Nanyaojie,Sutteridge,526,
Honduras,San Francisco de Coray,Monument,1499,
Mexico,Los Mangos,Continental,9,93228
Japan,Gōtsuchō,Old Shore,99,699-3162
United States,Toledo,Crest Line,79689,43605
Israel,West Jerusalem,1st,6835,
Russia,Monino,Carberry,85,142450
Thailand,Taphan Hin,Scoville,4,66110
China,Yangyu,Spaight,32724,
China,Yangdu,Russell,7101,
Colombia,Belalcazar,Scofield,157,177007
China,Zhuxi,Shelley,7092,
Japan,Shizunai-furukawachō,Susan,74,942-0213
United Kingdom,Glasgow,Acker,7,G4
South Africa,Utrecht,Mosinee,68,2980
Morocco,Larache,Fieldstone,8,
Belarus,Kalodzishchy,Messerschmidt,81604,
Kenya,Muhoroni,Bartillon,7190,
Portugal,Montemor-o-Velho,Ronald Regan,7394,3140-253
Portugal,Rio Covo ( Santa Eulália ),North,9880,4755-484
Kenya,Kitale,Jana,99347,
China,Taoyuan,Corben,536,
China,Da’an,Rusk,30,
Indonesia,Gotputuk,Dennis,1,
Serbia,Trstenik,Nelson,3,
Thailand,Trakan Phut Phon,Kingsford,8117,90120
Indonesia,Sumberjeruk,Iowa,67,
Russia,Borzoy,West,82,366406
Finland,Lammi,Twin Pines,0,16901
Poland,Szczawno-Zdrój,Gateway,660,58-310
Colombia,Ciénaga de Oro,Bluejay,3643,232538
Russia,Novosheshminsk,Walton,352,423190
Kazakhstan,Aqtoghay,Quincy,271,
Oman,Haymā’,Sachtjen,73,
China,Dianfang,Pleasure,5,
Portugal,Bilhó,Moulton,7109,4880-076
China,Xinquan,Elgar,56624,
Portugal,Odeleite,Donald,610,8950-355
Mongolia,Ulaanbaatar,Weeping Birch,44,
China,Lingtou,Hoard,420,
Portugal,Sezures,Carpenter,9,3550-286
Dominica,Portsmouth,Columbus,60430,
China,Xinhua,Lakeland,78,
Bulgaria,Vetrino,2nd,8796,9225
Russia,Prokhorovka,Carpenter,500,309000
Sweden,Dorotea,Kinsman,10893,917 32
Cambodia,Pailin,Little Fleur,4279,
China,Jiangduo,Warrior,6,
Philippines,Besao,Sachtjen,596,2618
Japan,Okunoya,Loomis,56,314-0116
Greece,Chrysoúpolis,Del Sol,71872,
China,Chenqing,Saint Paul,99,
Indonesia,Dulolong,Barby,3,
Russia,Skovorodino,Sheridan,25,676015
Jamaica,Ocho Rios,Elka,6,
Ukraine,Skalat,Hanson,920,
Russia,Khandagayty,Fieldstone,0,668134
Poland,Józefosław,Lakeland,30,05-509
Czech Republic,Opatov,Vidon,2352,675 28
Mexico,Las Flores,Anderson,22,87395
France,Boissy-Saint-Léger,Bellgrove,655,94474 CEDEX
Nepal,Ilām,Village,6,
China,Zhonghouhe,Spenser,311,
Cameroon,Fundong,Gateway,54,
Indonesia,Kawangkoan,Dayton,473,
Moldova,Briceni,John Wall,8,MD-5114
Bosnia and Herzegovina,Svojat,Schlimgen,758,
Albania,Shënmëri,Grim,7373,
Latvia,Riebiņi,Towne,51,
Iraq,Kifrī,Carpenter,5751,
United States,Phoenix,Colorado,45689,85030
Portugal,Castelo de Vide,2nd,35131,7320-105
Brazil,Trindade,Paget,8,56250-000
Macedonia,Bosilovo,Elmside,37,2431
Netherlands,Rotterdam postbusnummers,Bultman,90935,3009
Indonesia,Koncang,Mallard,2,
Serbia,Niška Banja,New Castle,864,
France,Nice,Helena,3522,06016 CEDEX 1
Brazil,Vitória de Santo Antão,Mayer,3355,55600-000
Philippines,Calaba,Stoughton,14,3109
Russia,Kovylkino,Northview,59,431355
Brazil,Iporá,Straubel,587,76200-000
Armenia,Geghanist,Artisan,965,
Brazil,Costeira do Pirajubae,Armistice,72626,88000-000
Indonesia,Karanglincak,Golf View,811,
Greece,Kallithéa,Daystar,2559,
China,Hushi,Gulseth,1,
Norway,Sandefjord,Clarendon,5,3225
Croatia,Brckovljani,Glendale,396,10370
China,Shuigou’ao,Cardinal,8207,
Costa Rica,Siquirres,Westerfield,4035,70301
Russia,Pokrovka,Leroy,5786,182160
Portugal,Avelinha,Columbus,6,3505-125
China,Huixing,Pleasure,7,
France,Flers,Pine View,16,61104 CEDEX
China,Qingshuihe,John Wall,24951,
Sweden,Ljungbyholm,Orin,43,388 31
Panama,Chame,John Wall,4299,
Russia,Klyuchevskiy,Utah,6301,632514
Japan,Hitachi,Pleasure,7273,319-1417
Indonesia,Tuwa,Prairieview,60,
Indonesia,Tundagan,Sutherland,5060,
China,Gouping,Lindbergh,8160,
Philippines,Kanluran,Rigney,3783,4107
Colombia,El Charco,Grover,4,527537
Slovenia,Kostel,Petterle,200,8331
Russia,Rognedino,Duke,21587,242774
Indonesia,Cibungur,Welch,85,
Sweden,Nora,Daystar,9978,713 30
China,Haishan,Ronald Regan,447,
Yemen,Dhī Nā‘im,Fairview,1,
Canada,Golden,Emmet,8911,J9Z
Indonesia,Ketawang,Clemons,2616,
Philippines,Barurao,Delaware,92,8108
China,Luoping,Spohn,36224,
Mexico,Reforma,Clarendon,69318,32600
Ivory Coast,Guiglo,Iowa,1,
Peru,Santa Rosa,Northport,787,
Philippines,Wañgan,Barnett,2,2442
China,Mayanhe,Rutledge,267,
Peru,Mamara,Bellgrove,2,
Indonesia,Oesena,Elgar,63719,
China,Huilong,Jenifer,3,
Indonesia,Bonsari,Oak Valley,89,
Russia,Khadyzhensk,Prairieview,9,352680
Croatia,Karlobag,Bayside,46703,53288
Uzbekistan,G‘azalkent,Fallview,6808,
Sweden,Rimbo,Corry,65,762 91
Thailand,Samut Songkhram,Hoard,1,75110
Iran,Takāb,Mallard,693,
Nicaragua,Bluefields,Rockefeller,26,
Indonesia,Weda,Green,472,
Iran,Isfahan,Arkansas,670,
Norway,Oslo,Kipling,26629,0506
Indonesia,Desa Margaluyu,Northridge,7,
Paraguay,Colonia Neuland,Golf View,4,
Ecuador,Calceta,Memorial,13998,
Brazil,Pombal,Steensland,338,58840-000
Lithuania,Šventoji,Golden Leaf,11,98044
Tunisia,La Mohammedia,Kipling,987,
Thailand,Nong Kung Si,Superior,93891,46220
Macedonia,Pehčevo,Canary,488,2326
Philippines,San Enrique,Gerald,13,6104
Russia,Vanino,Welch,8,682860
Philippines,Silago,Kipling,8,6607
France,Schiltigheim,Riverside,6,67311 CEDEX
Colombia,Marinilla,Bayside,4051,054028
Brazil,Andradas,Kim,23,37795-000
United States,Sacramento,Canary,3,94297
Thailand,Sawaengha,Shopko,39991,14150
Libya,Yafran,Mifflin,65,
China,Shangtuhai,Sullivan,23,
Armenia,Ushi,Ronald Regan,35,
Mongolia,Dzüünbulag,Golf Course,8,
China,Zhanghekou,Kings,47001,
Czech Republic,Jablonec nad Jizerou,Dunning,3,512 43
Ireland,Ballyboden,Red Cloud,366,D6W
China,Changhe,Norway Maple,3,
Argentina,Chamical,2nd,9,4608
Indonesia,Noebesa,Miller,5143,
Peru,Pacucha,Division,9,
France,Hagondange,Harper,981,57304 CEDEX
Indonesia,Bendorubuh,John Wall,7739,
Indonesia,Pangawaren,East,10189,
Russia,Leninskiy,Schmedeman,60,678944
United States,Dallas,Pankratz,24004,75287
Poland,Regulice,Hollow Ridge,5725,33-164
Poland,Korsze,Colorado,9748,11-430
Russia,Novocherkassk,Chive,81,346408
Turkmenistan,Yylanly,Larry,7597,
Ireland,Thomastown,Hayes,92,W34
United States,Racine,Utah,718,53405
Peru,Circa,Carberry,255,
Greece,Lófos,Burrows,30,
China,Zhangjiaji,Sundown,6368,
United States,Savannah,Eastlawn,48505,31416
Indonesia,Sukamaju,Hermina,71,
Brazil,Itanhandu,Fulton,612,37464-000
Uganda,Lwengo,Springview,9316,
Brazil,Paragominas,Gateway,5,68625-000
China,Caopie,Cascade,15775,
China,Sanhe,Golf Course,95,
France,Évreux,Kings,961,27929 CEDEX 9
Philippines,Teresita,Hintze,101,9512
Paraguay,Colonia Catuete,Park Meadow,39,
Japan,Kanekomachi,Ohio,73,371-0858
Russia,Vyritsa,Stang,9,188382
Portugal,Alfena,Petterle,783,4445-005
Croatia,Koška,Duke,4945,31224
China,Gutang,John Wall,4,
Serbia,Bačka Palanka,Fairview,911,
Armenia,Dalarik,Rowland,408,
Thailand,Kaeng Khro,Walton,375,36150
Sweden,Grängesberg,4th,51106,772 30
Peru,Acobamba,Pine View,74,
Indonesia,Bakungan,Kingsford,27,
North Korea,Kyŏngsŏng,Valley Edge,8,
Australia,Adelaide Mail Centre,Fairfield,404,5889
New Caledonia,Dumbéa,Hollow Ridge,9471,98839
Bangladesh,Teknāf,Village,58833,4762
Brazil,Descalvado,David,5092,13690-000
Brazil,Iporã,Victoria,57340,87560-000
Japan,Ōgaki,Anhalt,1,503-2429
Brazil,Bandeirantes,Almo,8421,86360-000
Iran,Shahr-e Bābak,Holmberg,1,
United States,Jackson,Golden Leaf,363,39236
Afghanistan,La‘l,Pawling,96684,
Poland,Kramarzówka,Oxford,11,37-560
Mexico,5 de Mayo,Hayes,1696,87785
Indonesia,Seulimeum,Roxbury,14,
Brazil,Recife,Arapahoe,19,50000-000
China,Huayang,Cody,4439,
Poland,Krasne,Mcbride,3,36-007
Colombia,Manzanares,Randy,93,173028
Russia,Chekmagush,Northview,5794,452200
Indonesia,Jatisari,Forest,27,
Colombia,Mocoa,Moland,53751,860008
Indonesia,Leuwibuleud,Cascade,2,
Russia,Yashalta,Westend,12537,359025
Norway,Halden,Toban,385,1768
Philippines,Tiguion,Kinsman,8443,2714
China,Aimin,Waywood,6,
China,Miaoshou,Talmadge,29,
Nigeria,Runka,Kropf,75,
Ireland,Dunlewy,Debra,98,A91
China,Shunling,Stuart,638,
Canada,Saskatoon,Rockefeller,831,S7W
Philippines,Layog,Loomis,432,9610
China,Futian,Drewry,61,
Hungary,Pécs,Bultman,547,7610
China,Xinshi,Tomscot,580,
Guatemala,Mixco,Dakota,58,01057
France,Fosses,Shopko,76,95479 CEDEX
Chile,La Serena,Melrose,946,
Indonesia,Jayaraga Kaler,Nelson,64902,
Peru,Caballococha,Pearson,4,
Portugal,Torreira,Johnson,75,3870-306
Russia,Revda,Crescent Oaks,74427,623287
Egypt,Akhmīm,Old Gate,405,
Czech Republic,Oldřišov,Manufacturers,51919,747 33
Russia,Yalkhoy-Mokhk,Gina,86859,366913
Philippines,Capas,Aberg,82676,2333
Indonesia,Togu,Chinook,51,
Colombia,Carmen de Viboral,Emmet,1,054457
Indonesia,Nagrak,Coleman,5042,
Indonesia,Buka,Charing Cross,3,
China,Chuangye,Scoville,82040,
United States,Louisville,Donald,6,40225
Philippines,Ragay,Nancy,6,4410
Russia,Nevel’,Village Green,87,182520
Philippines,Pitogo,Kennedy,74908,7033
South Africa,Cullinan,Everett,951,1005
Indonesia,Gajrug,Gerald,0,
Russia,Polovinnoye,Bellgrove,50,641780
Albania,Dajt,4th,98396,
Philippines,Parion,Coolidge,21491,5805
Sudan,El Matama,Northfield,8,
China,Xishan,Elka,2654,
Italy,Mestre,Orin,30921,30175
Thailand,Khao Kho,Susan,311,67270
Philippines,Pimbalayan,Corry,2631,6342
Canada,Airdrie,Tomscot,3,T4B
China,Xingshou,Village Green,68387,
Taiwan,Zhubei,Sachtjen,13,
Colombia,La Unión,Express,151,761548
Peru,Las Palmas,Lake View,9875,
China,Huanshan,Fremont,47858,
Bosnia and Herzegovina,Zborište,Scofield,4477,
Indonesia,Hamonggolele,Texas,73,
China,Tongzhong,Mifflin,21376,
Brazil,Maracanaú,Sachs,6,61900-000
Portugal,Monte Novo,Lyons,9674,7780-256
Colombia,Purísima,Westend,66,231547
Gambia,Jifarong,Crownhardt,9811,
Portugal,Fenais da Luz,Welch,56,9545-214
Brazil,Jacareí,Walton,8,12300-000
Poland,Bojadła,Gale,32,66-130
Peru,Lanlacuni Bajo,Bayside,6443,
Pakistan,Mātli,Laurel,6,72011
Russia,Yakutsk,Milwaukee,55,677027
China,Fengjia,Melvin,5,
Indonesia,Kadaka,Kropf,9,
Azerbaijan,Kyurdarmir,Jackson,39,
Croatia,Biograd na Moru,Sutherland,3,23210
United States,Round Rock,Erie,2,78682
Venezuela,Coloncito,Eagle Crest,9,
Honduras,La Libertad,Hoffman,817,
Russia,Moscow,Kropf,263,901993
Philippines,Maydolong,Bartillon,9376,6802
Indonesia,Ploso,Dryden,2,
China,Dubu,Artisan,98157,
Sweden,Gislaved,Basil,70688,332 37
Indonesia,Tegalbuleud,Loomis,955,
Brazil,Lagoa do Itaenga,Blue Bill Park,2752,55840-000
Yemen,Ad Dann,Mallory,363,
Argentina,Garupá,Vahlen,51,3304
Kazakhstan,Asykata,5th,55932,
Colombia,Bello,Mayer,27094,051059
Brazil,Itapagé,North,2956,62600-000
China,Matoupu,Bonner,5,
China,Qilin,Westerfield,1,
Syria,Sirghāyā,Commercial,19,
Indonesia,Koatas Lao,Ramsey,16241,
China,Zhamog,Rowland,28,
Indonesia,Cigembor,Hayes,13696,
Indonesia,Sumberejo,Calypso,66,
China,Junchuan,Nevada,261,
China,Taipinghu,Grayhawk,83,
Argentina,Gualeguay,Ruskin,1,2840
Philippines,Teresa,Surrey,37982,1880
Pakistan,Nowshera Cantonment,Golf Course,95,22511
Russia,Yessentukskaya,Meadow Vale,46,357637
Russia,Tomilino,Nobel,68,140074
Russia,Tashla,Fairview,1,461199
France,Redon,Magdeline,71,35605 CEDEX
Indonesia,Rundeng,Mccormick,6762,
Bosnia and Herzegovina,Mrkonjić Grad,Melody,3454,
Indonesia,Cikotok,Dryden,50,
Philippines,Palanas,Moose,84247,5404
Brazil,Itabaiana,Johnson,7,49500-000
Indonesia,Kelapa,Bartelt,87,
Sweden,Göteborg,Clove,3,415 22
Belarus,Smarhon’,Bayside,89031,
China,Shuanghe,Cordelia,9,
China,Yedun,Burrows,645,
Belarus,Antopal’,Debs,6,
China,Dayou,Huxley,1,
Portugal,Monte,Aberg,48337,3870-123
Indonesia,Glatik,Karstens,788,
Brazil,Oliveira,Pennsylvania,538,35540-000
Czech Republic,Ledeč nad Sázavou,Merry,5,584 01
Russia,Krutinka,Onsgard,42831,646130
Portugal,Boco,Summerview,234,2425-405
China,Helin,Little Fleur,95686,
Venezuela,Píritu,David,2,
Sweden,Mörrum,Corben,2453,375 90
Philippines,Caramay,Karstens,304,1607
Czech Republic,Křížová,Gina,5,794 01
Spain,Leon,Mccormick,7,24010
Brazil,Apucarana,Lakewood,2335,86800-000
China,Sikeshu,Eggendart,15,
China,Gangu Chengguanzhen,Barby,43,
Philippines,Cabalaoangan,Bayside,16344,2446
Russia,Tambovka,Clyde Gallagher,61189,416020
China,Hecun,Laurel,54880,
Argentina,Colegiales,Prentice,584,1871
China,Zhetang,School,82999,
France,Paris 16,Arrowood,663,75778 CEDEX 16
Indonesia,Panenjoan,Fremont,75,
China,Zhangdiyingzi,Dovetail,52020,
Azerbaijan,Mingelchaur,Forster,68388,
Bosnia and Herzegovina,Starcevica,Vidon,1,
Indonesia,Simpang,Hanson,1,
Iran,Qohord-e Bālā,1st,6,
Botswana,Makoba,Nobel,835,
Indonesia,Kambatatamakawu,Sunnyside,31458,
Sweden,Eskilstuna,Monica,4702,635 11
China,Huatanshan,Eastlawn,9,
Indonesia,Subulussalam,Sundown,98652,
Vietnam,Uyen Hung,Fremont,76653,
Colombia,Piedrancha,Riverside,9,525069
Honduras,Tepusteca,Farmco,73,
China,Dayushu,Eliot,1410,
Nigeria,Orita Eruwa,Banding,6547,
Portugal,Agrelo,Straubel,0,4730-300
China,Zhulan,Marcy,357,
Russia,Bystryanka,Dorton,65,659555
Philippines,Cardona,Ridgeway,4413,1950
Chile,"Villa Presidente Frei, Ñuñoa, Santiago, Chile",Ludington,343,
Indonesia,Perreng,Annamark,4069,
Haiti,Petite Rivière de Nippes,Mitchell,8,
Argentina,Aviá Terai,Kipling,28,3706
American Samoa,Leone,Bay,628,96799
China,Chifeng,South,81,
China,Huishangang,Mayfield,276,
Argentina,Villa de Soto,Jenna,57,5284
Luxembourg,Lamadelaine,Wayridge,43,L-4888
Sweden,Örnsköldsvik,Rieder,757,891 86
Philippines,Luksuhin,Roth,58,4221
Norway,Oslo,Upham,588,0506
Indonesia,Bumirejo,Schlimgen,6,
Gambia,Sankwia,Hoffman,39,
Croatia,Oštarije,Rutledge,7,47302
China,Xieqiao,Quincy,4983,
Portugal,Argivai,Jana,830,4490-204
China,Wufeng,Ramsey,5703,
Argentina,Trelew,Corben,108,8353
China,Liangkou,Washington,75181,
China,Gahe,Marcy,9182,
Syria,Ma‘lūlā,Melby,8,
China,Mudian,Amoth,933,
Dominican Republic,Moca,Nobel,74717,11902
Chile,Ovalle,Browning,5992,
Sweden,Katrineholm,Dakota,8392,641 36
China,Jiangfeng,Ridge Oak,82,
United States,San Diego,Kensington,69,92176
Poland,Pogorzyce,Namekagon,616,32-503
Russia,Primorsko-Akhtarsk,Cardinal,8,353866
China,Shencang,Bobwhite,8,
China,Jiuting,Carey,688,
Portugal,Cential,Macpherson,1539,3070-085
Azerbaijan,Hacıhüseynli,Graceland,28406,
Peru,Piura,Elmside,7,
China,Sanqu,Jenna,55883,
United States,Washington,Rowland,13,20226
Greece,Lakkíon,Drewry,45,
Poland,Świeradów-Zdrój,Monica,9,59-852
China,Shijia,Judy,67,
China,Gaohong,Esch,74491,
Portugal,Póvoa,Surrey,847,2460-402
Czech Republic,Bílina Kyselka,Melby,30473,419 01
Nigeria,Igede-Ekiti,Memorial,15332,
Chile,Lampa,Maple Wood,787,
China,Huangcun,Fair Oaks,2765,
China,Wuxing,Melody,1,
Brazil,Perdões,Banding,8,37260-000
Indonesia,Magetlegar,Valley Edge,871,
Greece,Gýtheio,Armistice,337,
Portugal,Novais,Roth,2363,3660-410
Poland,Gomunice,Springs,4947,97-545
Canada,Dorchester,Macpherson,20322,E4K
Ethiopia,Dembī Dolo,Sugar,7,
China,Quzi,Karstens,520,
Croatia,Bošnjaci,Starling,2,32275
Canada,Nakusp,Rusk,72699,H9A
United States,El Paso,Cody,376,88546
China,Shuangfeng,Briar Crest,2311,
Philippines,Bail,Melody,135,5420
Philippines,Tabuating,Fuller,2763,1279
Argentina,James Craik,American,254,5984
Paraguay,Colonia Neuland,Golf View,4,
China,Huyang,Mccormick,6,
Colombia,Ipiales,International,531,524078
Russia,Nartkala,Atwood,8978,361336
Thailand,Bang Ban,Mosinee,92686,13250
China,Huzhuang,Melody,38172,
China,Dongxi,Coleman,5551,
Kenya,Kapsabet,Roth,93,
Poland,Rudziczka,Hoard,677,43-267
China,Guanlu,Luster,3957,
Comoros,Madjeouéni,Bobwhite,289,
Liberia,Gbarnga,Hanover,98,
Thailand,Krabi,Leroy,87,58120
Poland,Nowy Korczyn,Ridgeview,9384,28-136
Czech Republic,Milín,Sullivan,0,261 01
Denmark,København,Michigan,97,1310
Brazil,Barra Velha,Anniversary,79902,88390-000
Indonesia,Walakeri,Nova,72146,
Portugal,Mujães,Buhler,243,4905-515
United States,Boston,Mccormick,204,02203
Indonesia,Caper,Buell,2,
Poland,Załuski,Mcbride,36616,09-142
Pakistan,Thatta,Sunnyside,0,73130
Brazil,Indaial,Cordelia,537,89130-000
Gabon,Lékoni,Starling,20,
China,Yangjia,Linden,5944,
Aland Islands,Eckerö,Lindbergh,1,22270
Venezuela,Santa María de Caparo,Southridge,46,
Philippines,Pandan,Fuller,73,5712
Brazil,Concórdia,Shopko,6906,89700-000
France,La Valette-du-Var,Grover,0,83164 CEDEX
Philippines,Mamali,Pierstorff,50,9611
Sweden,Kalix,Hovde,71,952 61
United States,North Little Rock,Thackeray,6,72118
Vietnam,Lương Bằng,Melby,6035,
China,Hongsi,Grasskamp,5,
Peru,Paruro,Dexter,237,
Indonesia,Bengras,Forster,38,
Poland,Marianowo,Jay,6028,73-121
Macedonia,Gorobinci,Golf Course,99,2220
Canada,Normandin,Mcguire,124,G0H
Burkina Faso,Tougan,Surrey,9,
United States,Colorado Springs,Commercial,98,80920
United States,Arlington,Sage,34525,22217
Bangladesh,Rangpur,Pleasure,601,5470
Philippines,Panganiban,Chive,6,4806
Sierra Leone,Bumpe,Spaight,833,
Dominican Republic,Laguna Salada,Oak Valley,1,11004
Indonesia,Karangpocok,Merrick,30721,
China,Anjia,Schiller,5086,
France,Cran-Gevrier,Washington,0,74964 CEDEX
China,Dadong,Goodland,1,
China,Qinshan,Buell,159,
France,Chalon-sur-Saône,Stone Corner,3,71109 CEDEX
China,Beigucheng,Marquette,70,
France,Clermont-Ferrand,Sunfield,55149,63057 CEDEX 1
Russia,Peterhof,Eagle Crest,8,198804
Croatia,Labin,Brickson Park,2,52220
China,Woken,Clove,370,
Paraguay,Villa Florida,Center,6877,
France,Val-de-Reuil,Lakewood Gardens,5,27109 CEDEX
Kazakhstan,Bestöbe,Manitowish,24753,
Germany,Kiel,Hauk,2511,24109
Indonesia,Adirejo,Roxbury,96,
China,Jifeng,7th,8374,
Portugal,Carcavelos,Charing Cross,2,4620-031
Portugal,Mouriscas,Carioca,4,2200-706
Australia,Sydney,Victoria,32578,1191
Colombia,Segovia,Farmco,60,052818
Sweden,Halmstad,Gale,2,302 70
Iran,Herīs,Messerschmidt,3258,
Sweden,Motala,Portage,101,591 34
Indonesia,Bodeh,Hintze,23497,
Tanzania,Kisesa,Clove,98,
Peru,Tournavista,Dapin,9645,
Kosovo,Suva Reka,2nd,40897,
China,Nanhu,Scofield,515,
Indonesia,Bangilan,Haas,377,
China,Jindong,Victoria,8743,
Tanzania,Singida,Menomonie,8,
Indonesia,Pangligaran,Novick,698,
Argentina,James Craik,Holmberg,7100,5984
Indonesia,Gawul,Chive,9288,
China,Sanban,Transport,8,
China,Hexi,Cambridge,1203,
Iceland,Höfn,Walton,969,781
Portugal,Santa Eulália,Tennyson,59,4620-526
Portugal,Melres,Sachs,27099,4515-465
Netherlands,'s-Hertogenbosch,Kensington,1128,5204
China,Qianxu Zhen,Evergreen,448,
China,Tunggar,Laurel,179,
Indonesia,Wolofeo,Melrose,40251,
South Africa,Constantia,Londonderry,71291,7806
China,Tajike’abati,Hansons,6,
Nigeria,Kagoro,Pepper Wood,857,
Israel,Rosh Ha‘Ayin,Starling,34,
Sweden,Hisings Kärra,Hazelcrest,553,425 38
Guatemala,Mataquescuintla,Shoshone,3,06005
United States,Pompano Beach,Sachtjen,8,33064
China,Wuning,Roxbury,0,
China,Nansan,Oneill,17,
Sweden,Färjestaden,David,23,386 94
Russia,Sheksna,Sachtjen,5941,162572
Bulgaria,Sadovo,Artisan,83,4126
Brazil,Bento Gonçalves,Debs,8569,95700-000
Indonesia,Mafa,Mcguire,325,
United States,San Jose,Old Shore,812,95123
Russia,Grebnevo,Burning Wood,294,141160
Ireland,Greystones,Nevada,5,A63
Comoros,Sima,Hoepker,866,
China,Liuhu,Arapahoe,69,
Greece,Khiliomódhi,Ludington,737,
Serbia,Hrtkovci,Cody,11,
Sweden,Helsingborg,Waubesa,7611,251 08
Portugal,Pinhal da Marquesa,Mariners Cove,6,2950-577
Russia,Perelyub,Pennsylvania,4947,413750
United States,Minneapolis,Portage,213,55480
Czech Republic,Čáslav,Troy,41,407 25
China,Changxing,Sutherland,66,
Philippines,Alicia,Evergreen,8,7040
China,Gouyan,Hanover,7,
Ireland,Dunmanway,Raven,82,P47
China,Xiaozhen,Tony,14,
China,Panzhuang,Huxley,41,
China,Ehu,Londonderry,9,
Brazil,Várzea Alegre,Bultman,453,63540-000
Lithuania,Vilkija,Graedel,94079,54015
China,Zhifang,Darwin,305,
Portugal,Bárrio,Miller,951,4990-692
Syria,Ţayyibat al Imām,Reindahl,388,
China,Alakak,Dovetail,8,
Greece,Néa Magnisía,Victoria,797,
Argentina,Campo Largo,Shelley,46,3716
Thailand,Pa Phayom,Ridge Oak,86848,91130
Malawi,Lilongwe,Morrow,8043,
Tanzania,Kihangara,Old Gate,937,
Honduras,Sandy Bay,Kedzie,53759,
Indonesia,Bentengjawa,Stone Corner,654,
Indonesia,Banjar Pande,Bluejay,913,
China,Yumendong,Mallard,826,
Palau,Kayangel,Clemons,77871,
Nigeria,Obubra,Nevada,3,
Indonesia,Panglanjan,Eagan,0,
Japan,Nanto-shi,Hallows,4642,939-1733
Thailand,Bang Racham,Fremont,65,16130
United States,Vancouver,Burning Wood,834,98664
China,Xushan,Melvin,3412,
Croatia,Ježdovec,Quincy,7910,10250
Uruguay,Migues,Gulseth,18608,
Japan,Ushiku,Dwight,23671,400-0121
Indonesia,Cikadu,Northland,74,
Slovenia,Leskovec pri Krškem,Southridge,834,8273
China,Baishi,West,327,
Colombia,Rovira,Heath,4,733048
Peru,Maranganí,Loomis,34033,
Philippines,Quiling,Carpenter,33,2902
United States,Sacramento,Comanche,47780,95852
Sweden,Strängnäs,Russell,45,645 51
China,Jimsar,Vera,14,
Armenia,Aygepat,Kropf,9,
China,Mijiang,Bonner,1994,
Brazil,Pinheiral,Upham,650,27197-000
American Samoa,Aūa,Anniversary,17269,96799
Indonesia,Wanga,Algoma,75860,
Indonesia,Jajaway,Fairfield,12,
Afghanistan,Dehī,Straubel,242,
China,Xin’andu,Washington,3,
Venezuela,Punta de Piedra,East,2,
China,Yingcheng,Manitowish,2085,
Russia,Rossosh’,Dapin,7159,624282
Russia,Sabnova,Stang,13,368670
France,Châlons-en-Champagne,Clyde Gallagher,8,51012 CEDEX
Indonesia,Temperak,Susan,3,
Finland,Pargas,Hansons,1338,90020
Japan,Kawanoechō,Mosinee,6861,799-0412
Indonesia,Nagrog,Londonderry,9,
Yemen,Al Ḩusayn,Bunker Hill,434,
Serbia,Valjevo,Thackeray,5,
Philippines,Del Monte,Donald,32827,1105
Indonesia,Cikupa,Shelley,33645,
South Africa,Vredendal,Green Ridge,2290,8207
China,Dagui,Sloan,288,
Japan,Kainan,Dovetail,2974,649-6326
Poland,Strzyżowice,Spaight,48,42-575
Japan,Toyama-shi,Talisman,49,939-8282
Japan,Gōtsuchō,International,22,699-3162
Martinique,Le Lamentin,Nancy,51,97283 CEDEX 1
Russia,Sukpak,Milwaukee,9403,667904
Malta,Kirkop,Katie,42512,KKP
Argentina,Garupá,Sommers,65,3304
Marshall Islands,Airuk,Coolidge,1,96960
Malaysia,Petaling Jaya,Dixon,684,46781
Israel,Tiberias,Lunder,31,
Ivory Coast,Gagnoa,Eliot,708,
Croatia,Krapina,Hoard,922,49000
Portugal,Sete Cidades,Mallard,2,9555-197
Japan,Miyazu,Melby,971,626-0077
Libya,Ajdabiya,Becker,433,
China,Chicheng,Pond,4079,
Indonesia,Kokar,Acker,88849,
Argentina,Río Ceballos,Pearson,0,5113
Bulgaria,Chavdar,Petterle,6,2087
Russia,Mariinsk,Dawn,695,652156
Chile,Purranque,Manufacturers,40,
Liberia,Bensonville,Hoffman,3455,
China,Tianzhou,Cordelia,573,
Canada,Saint-Ambroise,Monica,847,G7P
Poland,Bełk,Warbler,1,44-247
Indonesia,Serawai,Menomonie,7088,
Russia,Cherkasskoye,Glacier Hill,5248,412954
China,Dongmafang,Anderson,3,
Argentina,Junín,Rusk,280,2152
Peru,Huasahuasi,Badeau,3,
Poland,Olsztynek,Brickson Park,305,11-015
Indonesia,Basa,Loeprich,14419,
Indonesia,Panyarang,Elka,42,
China,Jiahe,Cottonwood,54910,
Iran,Dorūd,Algoma,12,
Indonesia,Daja,Randy,1,
United States,Jacksonville,Moland,13228,32277
China,Anwen,Portage,9236,
Ukraine,Shakhtars’k,Scott,435,
Indonesia,Kimaam,Delaware,62365,
Malaysia,Tawau,Golf Course,42,91020
Canada,Virden,Rockefeller,29459,J5V
Tunisia,Al ‘Āliyah,Waubesa,6033,
Paraguay,Concepción,Rusk,240,
China,Shuangtang,Little Fleur,91,
Swaziland,Mhlambanyatsi,Erie,8053,
Indonesia,Lamalewar,International,39862,
Argentina,Río Segundo,Grayhawk,8934,5972
Japan,Atsugi,Sundown,69090,243-0007
China,Ziyuan,Debs,4046,
Philippines,Tiguion,Towne,99174,2714
Vietnam,Phú Túc,Luster,5496,
China,Fangqiang,Bobwhite,23,
Portugal,Gandara,Garrison,91419,4785-192
Ukraine,Velyka Bahachka,Upham,0,
Thailand,Sam Chuk,Hagan,6,72130
United States,Colorado Springs,Stuart,97895,80945
Poland,Szczawnica,Grover,38,34-460
Australia,Sydney,Fisk,7134,1196
Afghanistan,Shahrak,Barnett,88,
China,Suozhen,Wayridge,4,
Czech Republic,Studenec,Beilfuss,296,675 02
China,Weishan,Riverside,5372,
Russia,Shalinskoye,Banding,51131,663510
Ivory Coast,Abobo,Warbler,64422,
France,Avignon,Morning,283,84007 CEDEX 1
Philippines,Simod,Forest Dale,8,4342
China,Liucun,Dahle,3,
Portugal,Vimieiro,Tomscot,4094,4705-656
Kazakhstan,Belūsovka,Lillian,4238,
Ethiopia,Dubti,Meadow Vale,64413,
Israel,Jīsh,Welch,77744,
Poland,Sanok,Eastwood,1537,38-512
Philippines,Malilipot,Division,5038,4510
Brazil,Antonina,Hanson,75326,83370-000
Finland,Pyhäranta,Delladonna,813,23950
Honduras,Liure,Bonner,80,
China,Yuhang,West,78,
China,Tiedonglu,Acker,65,
Laos,Xam Nua,Goodland,50,
Syria,Tall Abyaḑ,Troy,48139,
China,Gulong,Vera,4189,
Finland,Ylihärmä,Helena,6,62375
Azerbaijan,Hacıqabul,Fairfield,89523,
China,Xiaomiaozi,Cambridge,20,
Russia,Kondinskoye,Oriole,6,628210
China,Jiujie,Erie,36,
China,Yanglinwei,Starling,23,
Indonesia,Banjar Batuaji Kaja,Mesta,3693,
Laos,Xamtay,Holmberg,2,
China,Hengjiang,Northridge,88594,
Vietnam,Tánh Linh,Magdeline,1642,
Indonesia,Sukamaju,Walton,669,
Ukraine,Boromlya,Continental,69155,
Portugal,Urrô,Sutteridge,903,4560-832
Serbia,Hrtkovci,Gina,14509,
Venezuela,Mariara,American Ash,4776,
Russia,Krasnogorodskoye,Monument,72,182370
Indonesia,Kenamoen,Crowley,1,
China,Yongfeng,Sutherland,89,
China,Lianxia,1st,48,
Macedonia,Bosilovo,Cambridge,38791,2431
Kenya,Voi,Miller,61067,
China,Yaogu,Canary,862,
China,Yaohua,Chive,5,
El Salvador,Conchagua,Autumn Leaf,4,
Russia,Nyurba,Katie,77,678450
Indonesia,Cilated,Sundown,1405,
Morocco,Sidi Yahia el Gharb,Caliangt,1,
France,Bordeaux,Calypso,417,33010 CEDEX
Indonesia,Panawuan,Marquette,8,
Tunisia,Gafsa,Eliot,3,
United Kingdom,Newbiggin,Comanche,430,NE46
Turkmenistan,Tagta,Kipling,83,
Portugal,Balazar,Sloan,408,4570-013
Croatia,Smokvica,Hooker,704,23249
China,Xigangzi,Melby,55143,
Greece,Kompóti,Ruskin,1,
Peru,Lobitos,Golf View,40721,
Croatia,Trilj,Hanson,296,21240
Philippines,Guihing Proper,Hoard,992,8006
China,Anjia,Debs,4,
Netherlands,Middelburg,Scott,197,4334
Poland,Leńcze,Towne,48,34-142
Indonesia,Tuwa,Mayer,4,
Kenya,Litein,Shoshone,3,
Poland,Skoroszyce,Oakridge,92,48-320
Brazil,Presidente Venceslau,Saint Paul,0,19400-000
Paraguay,Cerrito,Grim,82,
Nigeria,Pankshin,Lyons,66,
Philippines,Lilio,Meadow Ridge,1869,4004
China,Zhufo,Hermina,55113,
Greece,Ágios Vasíleios,Nobel,29,
Brazil,Tanabi,Pierstorff,0,15170-000
China,Haitang,Lien,75403,
China,Xiaoyue,Sheridan,87,
Portugal,Quintães,Columbus,7,4940-206
Poland,Krasne,Reindahl,48281,36-007
Albania,Zharrëz,Butterfield,806,
Indonesia,Jiworejo,Sherman,4,
Indonesia,Karamat,Shopko,1,
Indonesia,Pumai,Melody,14,
Indonesia,Langgapayung,International,70,
Morocco,Nouaseur,Northland,36,
Indonesia,Karangkedawung,Vera,2,
Romania,Satu Nou,Gateway,96667,737513
Portugal,Rio Covo ( Santa Eulália ),Dawn,2631,4755-484
Indonesia,Peranap,Farmco,9949,
Armenia,Akunk’,Lighthouse Bay,999,
Thailand,Chanthaburi,Sheridan,222,24120
Brazil,Rio Formoso,Tony,980,55570-000
South Korea,Kyosai,Haas,0,
Maldives,Naifaru,Dovetail,47,
Slovenia,Kamnica,Buhler,48,2351
Cuba,Arroyo Naranjo,Portage,8,
Thailand,Ban Khok,Reindahl,5,53180
Albania,Brataj,Dennis,685,
Indonesia,Watulabara,Mccormick,29,
Madagascar,Manakara,Moland,41020,
Thailand,Wachira Barami,Shopko,76636,45250
Indonesia,Sinarbakti,Kensington,4,
Ethiopia,Jijiga,Milwaukee,4,
Russia,Kizilyurt,Service,6458,368551
China,Guniushan,Declaration,313,
China,Wangzha,Service,1,
China,Kaiyuan,Di Loreto,367,
Germany,Hamburg,Erie,813,22041
Canada,Sylvan Lake,Atwood,74809,T4S
China,Menghai,Sunbrook,358,
China,Wenquan,Morrow,479,
Philippines,Conner,Atwood,68,3807
France,Palaiseau,Norway Maple,3831,91129 CEDEX
Czech Republic,Postřelmov,Stone Corner,0,789 69
Philippines,Bugcaon,Huxley,953,4023
Czech Republic,Kunčina,Chive,1428,569 24
China,Mahe,Waxwing,5030,
Japan,Kimitsu,Farragut,20,704-8166
Canada,Prévost,Thompson,6301,T7Z
China,Gutang,Del Mar,9,
Russia,Idrinskoye,Fallview,297,662680
Ukraine,Tlumach,Oriole,95266,
Ireland,Ballyboden,Manley,5364,D6W
Indonesia,Penaraga,Colorado,5418,
China,Zhangcaizhuang,Heath,21,
Vietnam,Thị Trấn Bình Mỹ,Talisman,5092,
China,Yujiawu,Parkside,81,
Indonesia,Sokarame,Basil,21461,
Philippines,Tulay,Onsgard,4,4110
Serbia,Turija,Dunning,31425,
China,Rongcheng,Forest,92747,
Russia,Nikolo-Pavlovskoye,Golf,74993,622911
Indonesia,Kotabaru,Dovetail,6292,
Netherlands,Apeldoorn,Sundown,85934,7319
Ireland,Castlebridge,Alpine,30,R14
China,Shanhou,Tony,7,
Brazil,Plácido de Castro,Onsgard,8,69928-000
United States,Glendale,Brentwood,5901,91210
Indonesia,Mantar,Northview,5,
Luxembourg,Itzig,Jay,547,L-5978
Paraguay,Pedro Juan Caballero,2nd,91808,
Tanzania,Mtambile,Nova,46,
Ukraine,Nova Kakhovka,Aberg,22,
Thailand,Ban Kruat,Darwin,0,31180
Yemen,Aţ Ţawīlah,Fulton,89604,
Philippines,Nalus,Anthes,21442,9514
Peru,Chocos,Larry,36408,
Mexico,Juan N Alvarez,5th,90,39030
Thailand,Thai Charoen,Logan,21,55000
Colombia,Mariquita,Pennsylvania,2,732028
Ivory Coast,Bingerville,Westridge,34,
China,Shanhe,Moulton,6661,
Philippines,Tapilon,Mitchell,56,6013
Cyprus,Mesógi,Hauk,362,
China,Yong’an,Hagan,5774,
Ukraine,Snizhne,Shasta,147,
Vietnam,Bích Động,Hermina,32344,
Indonesia,Kowang Utara,Burning Wood,0,
China,Banyue,Granby,99,
Botswana,Kanye,Hoffman,24,
Portugal,Santa Eulália,Upham,8273,4620-526
Czech Republic,Žandov,Goodland,56046,403 39
Philippines,Jarigue,Hazelcrest,4,9407
Canada,Kingsey Falls,Starling,44,T8H
Finland,Jämsänkoski,Westridge,5101,42301
Indonesia,Puputan,Stang,12,
Indonesia,Bucu Lor,Amoth,850,
France,Montbrison,Rutledge,1,42604 CEDEX
China,Buchou,Steensland,884,
Mali,Goundam,Walton,937,
Portugal,Vale da Bajouca,Manufacturers,7,2425-207
China,Chengbei,Milwaukee,7233,
Ukraine,Pryluky,Columbus,2,
Argentina,Tintina,Karstens,2995,3743
China,Fangtian,American Ash,12860,
Indonesia,Cangkringan,Goodland,73934,
Brazil,Osvaldo Cruz,Ludington,59227,17700-000
Indonesia,Gadingrejo,Blaine,0,
China,Quanling,Ridgeview,2,
Portugal,Gémeos,Tony,45,4810-571
Costa Rica,Guápiles,Duke,70191,70201
Costa Rica,Heredia,Tomscot,4911,40101
Tajikistan,Qalaikhumb,Pawling,0,
Zambia,Lundazi,Swallow,52558,
China,Yishi,Dakota,6628,
Portugal,São Pedro Gafanhoeira,Lawn,58,7040-524
China,Jianxin,Commercial,2,
Philippines,Santiago,Dovetail,2,8608
Somalia,Jawhar,Manley,70378,
Indonesia,Kentongan,Bobwhite,821,
Mozambique,Mocímboa,Di Loreto,221,
Russia,Pavlovka,Brentwood,475,617820
Russia,Uchkeken,Veith,46026,369394
Greece,Athens,Lakeland,15461,
China,Longgang,Commercial,35,
Japan,Kanie,Union,62,498-0062
Indonesia,Pondokrejo Wetan,Barby,410,
Brazil,Itapemirim,Muir,7,29330-000
China,Gengwan,Crownhardt,4379,
Honduras,Dulce Nombre de Culmí,Delladonna,65,
Portugal,Columbeira,Shasta,4550,2540-593
Macedonia,Vinica,Starling,18286,2310
Lithuania,Jieznas,Starling,56410,59058
Ukraine,Dvorichna,Coleman,8,
United States,El Paso,Dunning,7307,79999
Mexico,Primero de Mayo,Katie,4733,27944
China,Yantianhe,Redwing,938,
China,Mijiang,Bartillon,11418,
Canada,North Battleford,Sundown,458,S9A
China,Tonghong,Carpenter,5060,
China,Qitai,Rowland,70,
Russia,Argayash,Barby,14,456880
Thailand,Sam Phran,Kinsman,5,73110
France,Lille,Fuller,9,59049 CEDEX
Ukraine,Scholkine,Gale,9769,
Indonesia,Sukarara Utara,Burning Wood,366,
Indonesia,Fuan,Melby,4,
China,Huakoulongtan,Eastlawn,58530,
France,Chambéry,Mcguire,5238,73009 CEDEX
Brazil,Eirunepé,Fairview,351,69880-000
China,Jiaocun,Village,8,
Ukraine,Berezivka,Westridge,84824,
Argentina,Yerba Buena,Hanson,290,4622
Philippines,Labo,Hoffman,882,4604
Indonesia,Kotawaikabubak,Burrows,61,
Norway,Kristiansund N,Algoma,33,6506
Portugal,Santiago do Cacém,Lyons,30,7540-104
Indonesia,Halteu,Bluestem,385,
Ireland,Kiltamagh,Randy,4374,P75
Sweden,Hofors,Russell,62,813 91
Peru,Mollepampa,Prentice,382,
Morocco,Taounza,Del Mar,540,
China,Fengtai,Washington,44,
Indonesia,Kedungasem,Morning,9,
Indonesia,Kruengraya,Rigney,1961,
Portugal,Sacotes,Swallow,35067,2725-511
Mexico,Benito Juarez,Waxwing,36852,62214
Russia,Atlasovo,Russell,5801,901095
Indonesia,Tejakalapa,Kinsman,78206,
Slovenia,Kamnica,Jackson,54,2351
Palestinian Territory,Dayr Abū Ḑa‘īf,Farwell,2,
Sweden,Umeå,Brentwood,2,904 04
United States,Denver,Carpenter,82,80249
China,Pingyin,Pearson,8927,
Canada,Bancroft,Forest Run,5,S4X
Vietnam,Tam Kỳ,Nevada,85753,
Sweden,Uppsala,Killdeer,45,753 26
Slovenia,Mozirje,Shoshone,68908,3330
Cuba,Encrucijada,Northridge,3,
Tajikistan,Isfara,Forest,3172,
South Korea,Kwangyang,International,45681,
Russia,Shalushka,Vahlen,9,361424
China,Huaping,Acker,94,
China,Jianping,Summit,1876,
Philippines,Langtad,Moose,37695,4022
United States,Little Rock,Milwaukee,9,72204
South Korea,Yŏng-dong,Marquette,6564,
China,Shanghu,Grasskamp,2436,
China,Yeniugou,Rockefeller,52,
Norway,Ålesund,Ludington,2,6005
Slovenia,Kidričevo,Del Sol,73577,2325
Poland,Lipka,Park Meadow,3,77-420
Niger,Madaoua,Judy,8622,
United States,Corpus Christi,Dapin,6838,78410
France,Auxerre,Acker,42,89024 CEDEX
Madagascar,Ampanihy,Judy,7,
United States,Washington,Gale,5,20566
Canada,Oliver,Clove,98498,E5L
China,Yueshan,Pawling,41,
Albania,Fratar,Comanche,8186,
Argentina,Puerto Madryn,Ramsey,10813,9120
Russia,Pavlovka,Monterey,87004,433710
Iran,Gonbad-e Kāvūs,Del Mar,19,
Indonesia,Situsari,Farwell,84,
Greece,Gérakas,Prairie Rose,9,
Philippines,Lourdes,Saint Paul,18136,1114
China,Zaolin,Ridgeview,67129,
Portugal,Olival,Norway Maple,72358,2435-454
Nicaragua,San Rafael del Sur,Arizona,12260,
Mongolia,Haylaastay,Kinsman,84386,
Philippines,Naili,Petterle,28338,5613
Pakistan,Baddomalhi,Delaware,701,22501
Russia,Petrozavodsk,Mitchell,2828,185035
Russia,Syamzha,Bobwhite,426,162222
Indonesia,Sumbersewu,Declaration,7,
China,Xieyang,Sugar,8455,
Honduras,Choloma,Prairieview,172,
Portugal,Aldeia de Juzo,Lakeland,4,2750-015
Indonesia,Kendal,Luster,69,
French Polynesia,Punaauia,Forest Run,2567,
Poland,Osielsko,4th,91866,86-031
Brazil,Ortigueira,Mariners Cove,84099,84350-000
China,Yonghe,Susan,99,
Russia,Vazhiny,Bunker Hill,61199,187742
Indonesia,Talun,Bultman,34,
Indonesia,Cijoho,Lerdahl,37760,
Belarus,Davyd-Haradok,Farwell,50980,
Japan,Kitahiroshima,Erie,88,349-1111
Belarus,Enyerhyetykaw,Bultman,553,
Czech Republic,Údlice,Caliangt,1108,431 41
Brazil,Guaiúba,Bellgrove,68,61890-000
Greece,Kalloní,International,12778,
Russia,Nal’chik,Warrior,6,361424
Croatia,Jelisavac,Di Loreto,48985,31225
Russia,Yermish’,Debs,4164,391660
Afghanistan,Gereshk,Dennis,52,
Croatia,Zlatar,Glendale,4558,49250
Sri Lanka,Hendala,Columbus,530,11830
China,Haishan,Randy,91,
Japan,Sakurai,Kingsford,679,839-1301
China,Xuanbao,Green,80821,
Albania,Divjakë,Doe Crossing,5,
Brazil,Monte Alto,Meadow Ridge,0,15910-000
South Africa,Piet Retief,Milwaukee,64167,2389
Slovenia,Mežica,5th,0,2392
China,Xilian,Tomscot,2,
Czech Republic,Benešov,Lindbergh,6,679 53
China,Xinshao,Cherokee,582,
Afghanistan,Zīrakī,Dorton,2306,
Sweden,Falkenberg,Stoughton,6272,311 35
Indonesia,Tlogoagung,Brown,20,
China,Chenxikou,5th,7,
Peru,Asia,Shoshone,9,
Bosnia and Herzegovina,Hiseti,Colorado,17,
Russia,Ufimskiy,Fair Oaks,235,623220
Panama,Nueva Gorgona,West,19,
Bosnia and Herzegovina,Bihać,Kings,6922,
Indonesia,Gunungmanik,Grover,1268,
Mozambique,Nacala,Spohn,44,
China,Shilong,Miller,7,
Belarus,Khal’ch,Truax,2,
East Timor,Lospalos,Holmberg,8229,
Philippines,Siraway,Johnson,81,7121
Philippines,Mabini,Blue Bill Park,431,6313
Indonesia,Sumurwaru,Mockingbird,1,
Philippines,Lilio,Knutson,34,4004
Colombia,Montenegro,Ridgeway,9,633008
Indonesia,Werang,Knutson,7929,
Poland,Golub-Dobrzyń,Evergreen,76636,87-401
China,Longqiao,Eastlawn,6946,
Indonesia,Bangbayang,Sherman,44103,
Philippines,Mamali,Boyd,22087,9611
Greece,Dimitsána,South,7,
China,Huayuan,Schlimgen,6,
France,Bastia,Heath,537,20403 CEDEX
Colombia,El Retén,Lindbergh,2919,478067
Brazil,Pimenta Bueno,Merchant,40,78984-000
Spain,Granada,Ronald Regan,92,18010
Indonesia,Anjirmuara,Annamark,4,
Philippines,Guinsadan,Artisan,2,2621
China,Wuhu,Little Fleur,7530,
Nepal,Malangwa,Kinsman,83,
Sweden,Heby,Menomonie,2,744 88
South Korea,Yesan,Bellgrove,8359,
Philippines,Plaridel,Gale,57923,7209
Netherlands,Nijmegen,Alpine,64552,6509
Philippines,San Juan,Grasskamp,1,6227
Sweden,Bollnäs,Manley,97306,821 80
Philippines,Marantao,Lien,94,9711
Jordan,As Salţ,Bultman,56108,
Indonesia,Karangmelok,Helena,7959,
United States,Clearwater,Scott,5096,34629
Netherlands,Drachten,Mallard,73157,9204
Colombia,Algarrobo,Mallory,77,472047
China,Bailuquan,Golf Course,0,
China,Duyanggang,Chive,6906,
Uzbekistan,Karakul’,Kings,275,
Ecuador,Portoviejo,Fair Oaks,745,
China,Hebu,Vera,7,
China,Kanbula,Amoth,11,
China,Qiting,Butternut,17,
Sweden,Vaxholm,Golf Course,5280,185 31
Sweden,Stockholm,Sugar,36,120 16
Bosnia and Herzegovina,Blagaj,Hanson,1,
Philippines,Mambago,Delladonna,39006,8118
Philippines,Pulilan,Clemons,1,3005
China,Meitang,Maryland,7666,
China,Xiasha,Arapahoe,23957,
China,Sandaotong,East,13,
China,Huifa,Packers,351,
China,Najiaying,Ludington,26543,
United States,Rochester,Springview,46,14614
Bosnia and Herzegovina,Koran,Park Meadow,5,
Philippines,Jovellar,Esch,79,4515
Portugal,Lau,Packers,2143,2950-127
Poland,Ręczno,Pawling,7923,97-510
Mali,Nara,Arapahoe,388,
Norway,Oslo,Sullivan,0,0162
Taiwan,Fengyuan,West,272,
Yemen,Khawr Maksar,Sloan,26,
Indonesia,Rikitgaib,Hoepker,6108,
Portugal,Boucinha,Milwaukee,628,4950-122
Philippines,Esperanza,Browning,71,8513
Russia,Shumerlya,Farwell,14,429127
China,Jinshan,Canary,9,
Ukraine,Tarakaniv,Vahlen,93497,
Czech Republic,Václavovice,Old Gate,428,742 83
Nigeria,Makoko,Trailsway,4,
China,Ganyi,John Wall,8,
Israel,Buqei‘a,Kinsman,9,
Bulgaria,Dve Mogili,Delaware,2,7159
Thailand,Wachira Barami,Rutledge,7,45250
Pakistan,Wārāh,Old Shore,17,77041
Colombia,Chiquinquirá,Blaine,8,154648
Philippines,Buenavista,Moulton,9065,8601
Indonesia,Babakan,Wayridge,68,
China,Sanjiao,Sherman,2,
Liberia,Ganta,Lakewood Gardens,67,
Czech Republic,Morávka,Pleasure,64,739 04
Sweden,Sundbyberg,Forest,5,172 79
China,Jinjing,Arapahoe,65,
Indonesia,Kurungannyawa,American Ash,63,
Chile,Nacimiento,Graedel,85,
Israel,Rosh Pinna,Parkside,12548,
Thailand,Ranot,Dawn,65659,90140
Czech Republic,Postřelmov,Norway Maple,4324,789 69
China,Juzhen,Vera,2,
Philippines,Santo Niño,Dayton,26915,6711
Thailand,Kamalasai,Summerview,1,46130
Kazakhstan,Semey,Troy,158,
China,Longtou’an,Pierstorff,39188,
Portugal,Quinta,Clove,6648,4600-652
Colombia,Candelaria,3rd,52873,111711
Indonesia,Banjar Beratan,Hansons,3,
Gabon,Mbigou,Buhler,33218,
Guinea-Bissau,Quebo,Logan,58,
Philippines,Angatel,Thompson,672,4335
Colombia,Funes,Jenifer,9,523528
China,Tangwei,Swallow,848,
Philippines,Pilar,Nevada,5,8420
China,Benniu,Corry,613,
Brazil,Itapevi,Milwaukee,57488,06650-000
Philippines,Tanjay,Blaine,0,6203
China,Longtan,Knutson,4,
Dominican Republic,San Pedro de Macorís,Hoffman,753,11604
Colombia,Guamal,Banding,5873,473029
Philippines,Maninihon,Corben,18,5510
China,Yongfeng,Reindahl,32,
Portugal,Burgau,West,5,8650-104
Poland,Wrząsowice,Northridge,3,32-031
Mexico,San Rafael,Florence,4683,41640
Indonesia,Fatuulan,Hoard,52781,
China,Shigu,Mallard,91,
Colombia,La Paz,Oak,804,685518
Ukraine,Lebedyn,Gulseth,47,
Colombia,Campamento,Onsgard,1,052027
Saudi Arabia,Tabālah,Spohn,7,
China,Dula’er Ewenke Minzu,Londonderry,17720,
China,Koramlik,Cascade,9914,
Indonesia,Lasusua,Bonner,28,
Spain,Santiago De Compostela,6th,2065,15899
Mexico,Guadalupe Victoria,Maple Wood,4446,75694
Uganda,Moyo,Nova,7,
Portugal,Pereiras,Butterfield,56,4620-073
Paraguay,Colonia Minga Porá,Carioca,0,
Thailand,Mae Wang,Kenwood,14581,50360
Colombia,San Juan Nepomuceno,Roxbury,42395,132018
Pakistan,Sakrand,Melvin,4,67210
Thailand,Wang Nam Yen,Graedel,605,27120
China,Jingzhu,Northview,1,
France,Toulouse,Susan,110,31079 CEDEX 5
Bangladesh,Rangpur,Anzinger,49286,5470
Slovenia,Grosuplje,Fulton,1710,1290
Portugal,Foros da Catrapona,Briar Crest,23,2840-051
Palestinian Territory,Al Ḩīlah,Dovetail,3,
Lesotho,Mafeteng,Kim,67,
China,Hongmei,Delaware,1,
Croatia,Lipovljani,Sycamore,1,44322
Indonesia,Jampang Kulon,Cordelia,493,
Sweden,Borås,Hoepker,9802,501 78
Brazil,Itatinga,Sauthoff,7,18690-000
Serbia,Taraš,Dwight,134,
Argentina,El Soberbio,Waxwing,26415,3364
Philippines,Bolboc,Crest Line,81625,1128
Brazil,Boa Vista,Prairie Rose,32,69300-000
Syria,Al Ghandūrah,Dryden,539,
China,Shouyan,Surrey,91855,
Indonesia,Leloboko,Haas,87,
Kenya,Muhoroni,Elka,0,
Serbia,Idvor,Macpherson,550,
France,Clermont-Ferrand,Dexter,325,63019 CEDEX 2
Albania,Novoselë,Sunbrook,48985,
Mexico,Buenos Aires,Mayfield,475,93380
China,Daxi,Ronald Regan,73430,
Indonesia,Padangan,Butternut,1,
China,Zhanjiang,Mccormick,58596,
China,Yidian,Farwell,14,
Philippines,Buliran Segundo,Atwood,7,3109
Indonesia,Rawa Satu,Reindahl,3321,
Argentina,Laboulaye,Elka,5,5120
Kazakhstan,Akkol’,Kedzie,64864,
Poland,Dąbie,Fordem,7234,62-660
Ukraine,Petropavlivka,Calypso,70,
Poland,Sieroszewice,Anderson,1022,63-405
China,Hefu,Commercial,9399,
Oman,Nizwá,Reindahl,298,
Brazil,Hortolândia,Crest Line,247,13183-000
Ethiopia,K’olīto,Ronald Regan,3,
Canada,Pont-Rouge,Mesta,43,G3H
China,E’erdun Wula,Westerfield,3,
Papua New Guinea,Kokopo,7th,4,
Poland,Jadowniki Mokre,Main,899,33-271
Philippines,Ransang,Armistice,5,1080
China,Shimen,Sunfield,2591,
France,Vierzon,Riverside,10,18104 CEDEX
Portugal,Terra Chã,Buena Vista,85112,9700-685
China,Guankou,Sunfield,7478,
China,Xiaojia,Springview,33,
Poland,Rzepiennik Strzyżewski,Marquette,6847,33-163
Philippines,Viga,Loomis,25930,4805
Montenegro,Podgorica,Heffernan,72,
Austria,Altenberg bei Linz,Warbler,8848,4210
China,Longshe,Schmedeman,89122,
South Africa,Lady Frere,American,7267,5419
Russia,Ufa,Almo,888,456143
Saudi Arabia,Al Hufūf,Bay,361,
Belarus,Ivanava,Lindbergh,624,
China,Hanyuan,Grayhawk,3,
Haiti,Fort Liberté,Linden,257,
Jamaica,Trinity Ville,Helena,2243,
Nigeria,Okpo,Village,12,
Indonesia,Sumberagung,Dakota,5199,
China,Heishan,Corscot,0,
Indonesia,Dukuhbadag,Hoffman,6,
Philippines,Calingcuan,Sage,4,2333
France,Bourges,Melby,599,18934 CEDEX 9
China,Sishui,Shopko,8576,
Nigeria,Minna,Muir,64,
Greece,Álli Meriá,Di Loreto,5686,
China,Heshi,Mendota,27479,
Iran,Īlām,Weeping Birch,3,
Ukraine,Mizhhir’ya,Hayes,43,
Afghanistan,Khudāydād Khēl,Tomscot,2,
China,Sanchang,Ramsey,8711,
China,Zhuji,Tennessee,7023,
China,Dunhao,Burrows,600,
Indonesia,Ceper,Alpine,82130,
Brazil,Barcarena,Lakeland,9202,68445-000
Portugal,Canelas,Messerschmidt,2682,3865-004
Poland,Lewin Kłodzki,Nelson,24,57-343
Bulgaria,Kiten,Carpenter,143,9243
Madagascar,Betafo,Dottie,742,
Ireland,Bagenalstown,International,98,R21
Indonesia,Ketapang,Badeau,5,
Costa Rica,Belén,Everett,48,50504
Pakistan,Bārkhān,Pierstorff,327,84400
China,Menghai,Bay,38905,
Colombia,El Cerrito,Shasta,7269,763528
Japan,Hayama,Eastwood,645,999-3242
Philippines,Paiisa,Pankratz,12314,4323
Vietnam,Sa Pá,Karstens,2,
Indonesia,Lohong,Hazelcrest,2,
Russia,Promyshlennaya,Lighthouse Bay,26,652380
Philippines,Conel,Sachtjen,8649,6053
Indonesia,Kahuripan,Hallows,21313,
Venezuela,El Regalo,Almo,25893,
Peru,Samanco,Northview,17,
Saint Vincent and the Grenadines,Barrouallie,Nevada,98221,
Ukraine,Kolochava,Gerald,2,
Sweden,Johanneshov,Donald,3252,121 36
Brazil,Ituiutaba,Arapahoe,2,38300-000
South Africa,Tugela Ferry,Thackeray,561,3010
Nicaragua,Estelí,Farwell,7340,
Afghanistan,Jalālābād,Waubesa,99653,
China,Tiantai Chengguanzhen,Ohio,87007,
China,Changqi,Superior,767,
Philippines,Medellin,Swallow,5019,6012
China,Dalun,Dawn,12,
China,Hehu,Oakridge,90496,
China,Sanxing,Artisan,77,
Russia,Uva,Mandrake,43,427265
Belarus,Plyeshchanitsy,Sunbrook,398,
Portugal,Funchalinho,Sherman,125,2825-106
Brazil,Brumadinho,Carey,7168,35460-000
Philippines,Aurora,Anderson,573,7020
China,Shazhouba,Reinke,1764,
France,Neuilly-sur-Marne,Gateway,73846,93335 CEDEX
Portugal,Sezures,Becker,1,3550-286
Cambodia,Paôy Pêt,Killdeer,78277,
Russia,Yasnyy,Meadow Ridge,6,462781
Russia,Lokot’,Browning,78,242315
United States,El Paso,Pawling,125,79940
Russia,Venëv,Columbus,7,301320
Argentina,El Carril,Tennyson,79086,4421
Zimbabwe,Chinhoyi,Miller,628,
Chile,Melipilla,Farmco,7108,
China,Shuitianzhuang,Bowman,49,
China,Gouyan,Reindahl,69,
Finland,Kihniö,Hauk,37,39820
Japan,Ōtawara,Hoard,4,329-3155
Indonesia,Neglasari,Kenwood,51,
Brazil,Ilhabela,Esker,457,11630-000
Mauritius,Dubreuil,International,51570,
Philippines,Pancol,Scoville,94,3200
Portugal,Pedrogão,Hermina,4,6090-425
Peru,Puno,Stephen,375,
China,Hongmiao,Washington,90,
France,Colmar,Reindahl,86188,68020 CEDEX
Poland,Raszowa,Arrowood,51119,47-232
Indonesia,Siumate,Hanover,78,
Philippines,Kabuynan,East,79,8311
Russia,Velikiy Ustyug,Tennessee,65,162399
Russia,Pavlovsk,Sunnyside,7,396456
Thailand,Buriram,Victoria,93,31180
Ivory Coast,Bouna,Schurz,734,
Portugal,Cruz de Pau,Old Shore,1318,2845-005
Armenia,Kapan,John Wall,95612,
China,Taihu,Fairview,357,
Brazil,Barretos,Gale,4700,14780-000
China,Longtan,Autumn Leaf,31865,
Vietnam,An Châu,Thackeray,38,
Colombia,Ocaña,Rigney,75,546559
France,Montpellier,Milwaukee,2512,34087 CEDEX 4
Kyrgyzstan,Kara Suu,Transport,323,
Laos,Xam Nua,Pearson,0,
Indonesia,Riung,Monument,77083,
Ukraine,Dnipryany,Jenna,588,
Ethiopia,Tulu Bolo,Loomis,75,
Russia,Lyubertsy,Farwell,8,140074
Canada,Saint-Raymond,Warbler,347,G3L
Indonesia,Anyar,Florence,8686,
China,Yiliu,Menomonie,14,
Sweden,Karlstad,Superior,420,651 11
Russia,Yurovka,Westport,124,353426
France,Miribel,Golf,1418,26350
Guatemala,Patzicía,Karstens,2,04011
China,Tanggan,Glacier Hill,434,
Russia,Bolotnoye,Fairview,0,633343
United States,Milwaukee,Memorial,0,53277
Bangladesh,Patiya,Kings,47276,4219
China,Daogao,Waubesa,0,
Greece,Áno Merá,Everett,9256,
Equatorial Guinea,Ebebiyin,Moland,603,
Brazil,São Paulo de Olivença,Donald,12,69600-000
Serbia,Sombor,Duke,4761,
China,Zhouxi,Buhler,201,
Palestinian Territory,Bīr Nabālā,Dahle,5634,
Portugal,Vilarinho da Castanheira,Stephen,6310,5140-279
Philippines,Alcantara,Esker,693,5509
Poland,Jawornik,Village,5,38-112
Indonesia,Mmaaf,Bowman,6,
Nepal,Panaoti,Meadow Ridge,52432,
China,Weishan,Farragut,966,
Vietnam,Nam Đàn,Grayhawk,2,
China,Lianghu,Schurz,50660,
Indonesia,Simpang,Quincy,6,
Sweden,Borås,Delladonna,8,504 50
Croatia,Prelog,Talisman,66,40323
Greece,Patitírion,Dryden,2,
Indonesia,Bojawa,Dexter,68989,
France,Cherbourg-Octeville,Sunnyside,5,50109 CEDEX
Argentina,Caseros,Westridge,9,3262
China,Xinfeng,Spenser,8,
Russia,Yablochnyy,Butterfield,561,694630
China,Qiligang,Surrey,96,
Czech Republic,Chyňava,Reindahl,0,267 07
Poland,Rozwadza,Commercial,88314,47-330
Russia,Sokol,Merry,63,347252
Czech Republic,Bílina Kyselka,3rd,54,419 01
France,Villeurbanne,Hanover,8405,69604 CEDEX
Dominican Republic,Nagua,Morning,21230,10118
Austria,Graz,Loeprich,5,8042
Sweden,Nynäshamn,Maple,1788,149 43
Indonesia,Tepal,Eastwood,9683,
France,Châteaurenard,Vera,8,13834 CEDEX
Indonesia,Sapat,Westerfield,69804,
Brazil,Wenceslau Braz,Maple Wood,94,84950-000
South Africa,Muldersdriseloop,Sunbrook,10,3250
Indonesia,Sampungu,Nevada,47,
Paraguay,San Pedro del Paraná,Dapin,402,
Philippines,Guiuan,Main,67353,6809
China,Hedi,Waubesa,68521,
Sweden,Vårby,Green Ridge,5,143 46
Paraguay,Yataity del Norte,Kenwood,51890,
China,Rongmei,Clemons,383,
Canada,Walnut Grove,Cambridge,53,V2X
Indonesia,Margotuhu Kidul,Porter,0,
Egypt,Maţāy,Elmside,43,
Ivory Coast,Tanda,Ruskin,61853,
Indonesia,Sukosari,Cambridge,62,
Canada,Smiths Falls,Thackeray,167,K7A
Indonesia,Sumbermanggis,Aberg,971,
China,Baisha,Hanson,705,
United States,Grand Rapids,Sullivan,3637,49560
Croatia,Jelisavac,Red Cloud,90,31225
Thailand,Ron Phibun,Express,97,80130
Eritrea,Ak’ordat,Division,5,
Russia,Krasnyye Barrikady,Grayhawk,319,416357
China,Gangba,Cambridge,46241,
Colombia,Popayán,Rutledge,688,190018
Russia,Ust’-Kachka,Crowley,155,614524
China,Xinghai,Iowa,87193,
Russia,Ryazanskaya,Corben,1174,352613
Philippines,Cordova,Pine View,52118,6017
Panama,Pueblo Nuevo,Monterey,9,
Laos,Ban Houakhoua,North,8236,
Indonesia,Sumberrejo,Shelley,4,
Dominican Republic,Villa Bisonó,Pawling,51,11105
Malaysia,Kangar,Sutteridge,55,01673
Zimbabwe,Nyazura,Esch,87377,
Kazakhstan,Ush-Tyube,Fallview,85605,
Portugal,Corgo,Brown,9295,4620-357
Brazil,Salto de Pirapora,Moulton,6,18160-000
Sweden,Linköping,Dryden,39492,584 22
Indonesia,Bunut,Clove,5,
Malta,Mellieħa,Lyons,49,MLH
Brazil,Lagoa do Itaenga,Fisk,69,55840-000
Portugal,Marisol,Anhalt,3276,2855-174
China,Meiyao,Beilfuss,11,
Sweden,Göteborg,Fisk,58424,401 24
Russia,Peski,Sutteridge,1271,175323
Iran,Nahāvand,Londonderry,8276,
China,Gangsha,Harbort,85,
China,Bulianhe,Farmco,3,
Japan,Ogōri-shimogō,Utah,29,754-0897
Czech Republic,Pecka,Del Sol,94757,507 82
Estonia,Viljandi,Clyde Gallagher,1897,
Vietnam,Thị Trấn Nho Quan,Londonderry,5,
Russia,Issa,Vernon,958,442710
China,Balbagay,Melvin,3882,
Spain,Malaga,Northview,508,29005
China,Taishanmiao,High Crossing,56861,
Philippines,Silae,Bluestem,68,8422
Sweden,Laholm,Burning Wood,49,312 31
Czech Republic,Nové Sedlo,Eagle Crest,3,438 01
Indonesia,Putukrejo,Sloan,98,
China,Chengbei,Duke,13,
Indonesia,Parungjawa,Cherokee,34587,
South Korea,Yangsa,Anderson,12,
China,Longtang,Cardinal,0,
Sweden,Sölvesborg,Troy,529,294 21
China,Pozhang,Sullivan,949,
China,Shanhaiguan,Fuller,205,
Czech Republic,Hostouň,Scofield,39546,345 25
Philippines,Wao,Trailsway,51776,9716
Venezuela,La Azulita,Fulton,3001,
Yemen,Al Matūn,Prairie Rose,245,
Thailand,Khu Khan,7th,2149,56110
Russia,Tpig,Troy,23,368380
Switzerland,Basel,Center,9,4010
Mexico,Morelos,Ronald Regan,39598,73795
Ukraine,Komyshany,Summit,7499,
Norway,Steinkjer,Hermina,11390,7737
China,Zhoutou,Bonner,50740,
Croatia,Belica,Cottonwood,0,40319
Russia,Ikryanoye,Anderson,9,416372
Bangladesh,Bāndarban,Alpine,17935,3863
Honduras,Lepaterique,Shoshone,3,
Sweden,Ystad,Welch,20,271 60
Cameroon,Tiko,Helena,15,
China,Dadong’ao,Chive,31,
Sweden,Lidingö,Hauk,1759,181 23
Vietnam,Châu Thành,Graceland,754,
Indonesia,Bangilan,Merry,720,
Russia,Chishmy,Bartelt,79159,431674
Indonesia,Cikarang,Maryland,42978,
Uzbekistan,Gazli,Haas,0,
North Korea,Hoeyang,New Castle,7837,
Brazil,São Miguel do Araguaia,Superior,1772,76590-000
Peru,Puno,Express,9131,
Brazil,São Bernardo do Campo,Drewry,8,09700-000
United States,Detroit,Transport,1,48217
Indonesia,Osapsio,Blue Bill Park,9960,
Ivory Coast,Issia,Sullivan,44170,
Portugal,Alpedrinha,Mendota,871,6230-060
China,Beibao,Glendale,7009,
Thailand,Kham Sakae Saeng,Katie,5,30290
United States,Portland,Del Sol,625,97240
China,Dingzigu,Shasta,42,
Indonesia,Karangbungur,Mesta,94464,
Indonesia,Kujung,Macpherson,6729,
Argentina,Chajarí,Jenna,3622,3228
Sweden,Jönköping,Pine View,25511,550 11
China,Longcheng,American Ash,264,
Ireland,Tullyallen,Magdeline,2889,E25
Iran,Fareydūnshahr,Kenwood,11909,
Poland,Olsztyn,Oriole,41,42-256
Serbia,Gložan,Merrick,962,
Tunisia,Mateur,Kenwood,45,
China,Shimeitang,Prentice,59,
Colombia,Cravo Norte,Clove,3505,812019
China,Hejiaping,Fremont,6,
Greece,Archángelos,Arkansas,87574,
Mongolia,Sharga,Cardinal,58499,
Tanzania,Namalenga,Norway Maple,2373,
Indonesia,Woto,Swallow,70032,
Finland,Muurame,Dayton,4,40951
Indonesia,Ngangguk,Schlimgen,1193,
Philippines,Cabaritan East,Portage,82406,3517
Indonesia,Sambongpari,Fairfield,6403,
China,Yangchao,Kedzie,709,
Slovenia,Beltinci,Gulseth,32573,9231
Sweden,Nässjö,Lyons,3762,571 36
United States,Iowa City,Blackbird,93,52245
Brazil,Aripuanã,Bellgrove,2,78325-000
Bolivia,Arani,Bartelt,14542,
Philippines,San Marcelino,Barnett,2,2207
Portugal,Manique,Sugar,1,2645-456
Malaysia,Kuala Lumpur,Butterfield,752,50150
Greece,Naxos,Lindbergh,45,
China,Lianyuan,Scott,9,
Russia,Staryy Oskol,Pond,8544,309509
Indonesia,Uwa,Starling,747,
China,Luzhuangzi,Melvin,1,
Honduras,Santa Lucía,Petterle,621,
Egypt,Dayrūţ,Fieldstone,659,
Indonesia,Pringu,American,42,
Estonia,Tartu,Valley Edge,253,
Indonesia,Bungkal,Leroy,97,
Vietnam,Vũ Quang,Golf Course,0,
Philippines,San Andres,Lighthouse Bay,5432,5504
Philippines,Linao,Hallows,2,2017
Croatia,Tenja,Mifflin,1166,31207
China,Menlou’ao,Mcbride,77231,
Indonesia,Loa Janan,Sauthoff,6,
El Salvador,Texistepeque,Loeprich,50109,
China,Shijing,Nova,8,
Indonesia,Balengbeng,Parkside,9,
China,Sanshengyuan,Gina,25859,
Portugal,Alcácer do Sal,High Crossing,65304,7580-005
Colombia,Apartadó,Meadow Valley,61,057847
Portugal,Malhou,Hagan,8,2380-506
Philippines,Calamba,Merchant,9312,7210
Greece,Páchni,Grim,3816,
Indonesia,Jampang Tengah,Gerald,76618,
Mauritania,Kiffa,Maywood,8235,
Tunisia,Qal‘at al Andalus,Debra,49995,
Indonesia,Pakemitan Dua,David,5,
Poland,Januszkowice,Debra,149,47-330
Portugal,Sabugueiro,Cardinal,482,7040-704
Philippines,Hermosa,Jana,5403,2111
Ukraine,Krasnotorka,Burrows,5392,
Peru,Pacanga,Goodland,6637,
Portugal,Picassinos,High Crossing,32332,2430-418
Brazil,Medeiros Neto,Weeping Birch,570,45960-000
Egypt,Fāraskūr,Charing Cross,42333,
Portugal,Lamarosa,Sachtjen,94,3025-389
Sudan,Al Qiţena,Everett,9,
United States,Monroe,Mockingbird,1455,71213
Japan,Sōka,Village,411,341-0053
Indonesia,Tambaksari,Lake View,8591,
Pakistan,Fort Abbās,Doe Crossing,95191,62021
China,Minzheng,Eliot,2674,
Philippines,Tubli,Crownhardt,61,4031
Canada,Middleton,Upham,8,K9V
Philippines,Batan,Eagan,64,5615
Nigeria,Rahama,Stoughton,70,
Russia,Kostino,Farmco,878,613060
Ethiopia,Ādīs Zemen,Blaine,3,
Puerto Rico,Ponce,Carioca,39752,00731
Thailand,Pathum Ratchawongsa,Golden Leaf,5444,37180
Netherlands,Breda,Wayridge,0,4809
Japan,Sakura,Village,782,989-2433
Indonesia,Gersikputih Tengah,Green Ridge,31,
Egypt,Jirjā,Eagle Crest,77,
United States,Memphis,Drewry,6,38150
Brazil,Horizonte,Daystar,689,62880-000
Vietnam,Cần Giờ,Summerview,79108,
France,Nancy,Ridgeway,9763,54021 CEDEX
United States,Sioux Falls,Iowa,0,57105
Philippines,Santa Teresita,Laurel,80,4206
Germany,München,Golf,0,80686
Israel,El Fureidīs,Kennedy,12522,
Thailand,Wichit,Karstens,43142,83120
Sweden,Västerås,Village,94,720 16
China,Wangcun,Eastwood,43,
Philippines,Sabtang,Londonderry,731,3904
Dominican Republic,Matanzas,Knutson,54119,11904
Mongolia,Mönhbulag,Arapahoe,9,
Russia,Yelizavetinskoye,Monument,792,356407
Philippines,Maulawin,Armistice,44,5105
Poland,Prostki,Basil,2582,19-335
Argentina,Embarcación,Nevada,28558,4550
Brazil,Raposos,Eliot,38,34400-000
Afghanistan,Ţāqchah Khānah,Lakewood Gardens,7,
Indonesia,Kiukasen,Marquette,36708,
Venezuela,Carrizal,Stone Corner,925,
Venezuela,Ciudad Bolivia,Erie,70026,
Malaysia,Kuala Lumpur,Darwin,45,50902
Colombia,Guachucal,Meadow Vale,98,524588
United States,Springfield,Kipling,38,65898
United States,Springfield,East,7278,62723
Poland,Mircze,Columbus,6873,22-530
South Africa,Tzaneen,Derek,38,0876
France,Niort,Forster,11260,79099 CEDEX 9
Brazil,Quatá,Mariners Cove,24885,19780-000
Serbia,Belgrade,Colorado,534,
Portugal,Livramento,Scoville,63984,2765-366
United States,Greensboro,Ridgeview,8,27415
Peru,Andahuaylillas,Fuller,94155,
Serbia,Sremčica,Dorton,5734,
Indonesia,Banyubang,Bluejay,5,
Vietnam,Bến Tre,Scofield,2,
Albania,Bradashesh,Hagan,179,
China,Dadong,Clove,5002,
China,Daxinshao,Paget,16944,
Poland,Węgliniec,Vera,653,59-940
China,Zengguang,Homewood,7792,
Poland,Rybie,Express,54,05-850
Peru,Huaranchal,Fieldstone,855,
Portugal,Argivai,Mayer,1,4490-204
Nigeria,Bokani,Cody,86084,
China,Haiyu,Brentwood,350,
Russia,Kremenki,Marquette,7674,249185
Czech Republic,Trnava,Farragut,8234,674 01
Peru,Curibaya,Tennyson,3011,
China,Yanggu,Dennis,72705,
Japan,Koga,Roxbury,57484,869-0233
South Africa,Bronkhorstspruit,Pepper Wood,1014,1028
Indonesia,Jongorsari,Glendale,3,
Brazil,Itapeva,Jana,11,18400-000
China,Baolong,Roxbury,0,
Portugal,Murganhal,Mariners Cove,36,2760-040
France,Paris 08,Menomonie,50,75419 CEDEX 08
United States,Augusta,Springview,246,30905
China,Yingpu,Maple Wood,3,
Nigeria,Tambawel,Summer Ridge,10322,
Indonesia,Ciengang,Melvin,26,
Ireland,Balally,Dryden,7053,D04
Armenia,Dzorastan,Harbort,87333,
Portugal,Ferraria,Chive,532,2445-079
Montenegro,Pljevlja,Crownhardt,2,
Hungary,Debrecen,Hermina,59078,4004
China,Canggou,Sunnyside,8,
Yemen,Najd al Jumā‘ī,Iowa,714,
Albania,Konispol,Hansons,68,
Indonesia,Cikananga,Prentice,930,
Serbia,Senta,Trailsway,983,
China,Pucheng,Scott,6335,
Somalia,Bandarbeyla,Clove,11,
Canada,Conception Bay South,Schmedeman,58632,A1X
Mali,Yélimané,Mccormick,18,
Indonesia,Masebewa,Mendota,583,
Colombia,Mistrató,Del Sol,7,664028
China,Dongdu,Packers,988,
Peru,Cocabamba,Washington,2,
Czech Republic,Zásmuky,Grayhawk,95470,281 44
China,Humen,Charing Cross,8098,
Haiti,Carice,Vidon,7650,
Russia,Venëv,Dovetail,0,301320
France,Saint-Jouan-des-Guérets,Bartillon,250,35435 CEDEX
China,Shiyun,Hoffman,6,
Honduras,Marcovia,Shoshone,717,
Poland,Dębowiec,Donald,0,43-426
China,Hebu,Maple Wood,22,
Palestinian Territory,Qaffīn,Gateway,39,
Croatia,Višnjevac,Transport,95789,43226
Russia,Sukhobuzimskoye,Delladonna,50,663040
Philippines,Anao,Longview,5043,2310
Armenia,Aygek,Dakota,53,
China,Yanjiang,Banding,3,
Russia,Kizlyar,Forest Run,60,363720
Ukraine,Zvenyhorodka,Troy,84,
Mexico,Magisterial,Morning,1,47207
Mexico,Vicente Guerrero,Parkside,3,39200
Philippines,San Gregorio,Clyde Gallagher,48648,4325
China,Gaoqiao,Nancy,93,
Philippines,Mabalacat,Stephen,1,2010
Greece,Thymianá,Almo,25,
France,Strasbourg,Lerdahl,46984,67029 CEDEX 1
Argentina,Ingeniero Guillermo N. Juárez,Londonderry,3820,3636
Indonesia,Cimahi,Evergreen,46934,
Greece,Vrachnaíika,Eagan,9163,
Peru,Yanaoca,Talisman,11,
Finland,Kaavi,Upham,28935,73601
Greece,Axioúpoli,Superior,3456,
China,Changshan,Badeau,1845,
Poland,Cisiec,Kings,2,34-383
Mexico,Vista Hermosa,Killdeer,48,93608
Iraq,Ar Ruţbah,Evergreen,8738,
Hungary,Sopron,Texas,2,9404
Russia,Tonkino,Manley,746,612720
China,Pingli,Holy Cross,687,
Portugal,Alfena,Russell,12,4445-005
Honduras,Trujillo,Del Mar,913,
Zimbabwe,Insiza,Laurel,3,
China,Wanliang,Mitchell,6297,
Colombia,Caldono,Hermina,5424,192057
South Africa,Williston,Moland,0,6696
Sweden,Stockholm,Forest Dale,81,103 98
Brazil,Presidente Prudente,Columbus,15,19000-000
Lithuania,Plateliai,Heath,9,90036
Philippines,Puro Pinget,Swallow,7647,2808
South Africa,Koffiefontein,Spohn,13557,9987
Portugal,Arrifes,Thackeray,61,9500-365
Greece,Tílisos,American,32,
China,Lücheng,Buhler,76,
Greece,Kamárai,Kensington,4227,
Philippines,Claver,Di Loreto,6436,8410
Philippines,Bankaw,Kim,4922,1211
Brazil,Juripiranga,Rusk,5,58330-000
Indonesia,Barisan,Monument,3707,
Portugal,Vide,Washington,58,6285-105
Indonesia,Nginjen,Autumn Leaf,39,
China,Wuda,Sycamore,97,
Canada,North Bay,Colorado,8597,P1A
Malaysia,Putrajaya,Esker,773,62606
Indonesia,Kuma,Hoepker,804,
Macedonia,Kukurečani,Troy,5196,7241
Indonesia,Sukasirna,Oak,48509,
Costa Rica,Tejar,Eliot,73,11204
Vanuatu,Port-Vila,Loeprich,39,
Saint Helena,Edinburgh of the Seven Seas,Goodland,81,
Indonesia,Ngawen,Doe Crossing,7,
Czech Republic,Náklo,Garrison,194,783 32
China,Gaocang,Fair Oaks,96,
Indonesia,Botoh,Dorton,84,
China,Pailou,Waubesa,50,
Zimbabwe,Mutoko,3rd,193,
Philippines,Bagong Sikat,Oriole,70059,4903
Philippines,San Luis,Red Cloud,3,8511
Brazil,Armação de Búzios,Sherman,841,89790-000
China,Gengzhuang,Superior,60,
Indonesia,Tubuhue,Schmedeman,38,
Paraguay,Puerto Mayor Otaño,Dennis,1,
China,Haoping,Buena Vista,21416,
Philippines,Layog,Coleman,2,9610
Brazil,Passo Fundo,Esker,977,99000-000
Saudi Arabia,Al Hadā,Magdeline,7553,
Russia,Novokuybyshevsk,Talmadge,98808,446209
Benin,Banikoara,Magdeline,80,
Nigeria,Zuru,Oneill,8584,
Indonesia,Hariang,Banding,735,
Canada,Sechelt,Washington,82,K1B
Argentina,Coronel Suárez,Lillian,329,7541
Netherlands,Geldrop,Prentice,64719,5664
China,Sanyi,Doe Crossing,43,
China,Yushan,Bunting,2,
Czech Republic,Opařany,Mockingbird,51049,391 61
Ivory Coast,Agboville,Kim,37,
Somalia,Oodweyne,4th,7,
China,Zhulin,Sundown,32,
China,Gaohe,Pawling,405,
East Timor,Baucau,Anhalt,79441,
Sweden,Nyköping,Mallard,42682,611 93
Indonesia,Fatuhilik,Fordem,96,
Argentina,Mainque,Forest Run,9455,8326
Serbia,Banatska Topola,Sunbrook,232,
Belarus,Atolina,Hermina,486,
Indonesia,Kampungbaru,Valley Edge,394,
Portugal,Vila Nova de Milfontes,Gale,37,7645-215
Mexico,5 de Mayo,Oak,3,93350
China,Anjihai,Bashford,510,
Spain,Granada,Welch,95539,18010
China,Mandalt,Donald,4526,
Tajikistan,Norak,Toban,3982,
Indonesia,Putat Lor,Dorton,27006,
China,Lianghe,Gulseth,827,
Indonesia,Sadananya,Brown,49,
China,Chongqing,7th,7183,
Albania,Gjirokastër,Hovde,604,
Indonesia,Watulabara,Anhalt,50332,
Brazil,Salto,Jackson,82109,13320-000
Russia,Koygorodok,Clemons,129,168170
Colombia,Riosucio,Hovde,892,178057
Croatia,Ludbreg,Scofield,70808,42230
China,Wuci,Arkansas,74042,
France,Levallois-Perret,Londonderry,76,92684 CEDEX
Canada,Kugluktuk,Haas,90467,T5C
Ukraine,Blahodatne,Sunnyside,29977,
Greece,Agía Varvára,1st,143,
Mexico,Libertad,Elgar,19,83450
Colombia,El Peñol,Oak,3660,522088
Indonesia,Ngembak,Brown,27,
Philippines,Dualing,Hooker,3,1103
China,Shuitian,Linden,13,
Indonesia,Sukahening,Sachs,40153,
Benin,Dogbo,Dovetail,57305,
Russia,Burlatskoye,Hintze,46215,356401
China,Henghe,Clove,85,
United States,Garden Grove,Anniversary,98752,92645
Argentina,Bonpland,Moland,79,3234
Republic of the Congo,Nkayi,Buell,60332,
Uruguay,La Paz,Reindahl,488,
Indonesia,Krajan Sidodadi,Vera,17,
China,Baimaqiao,Killdeer,436,
China,Tielu,International,17,
Brazil,Guaçuí,Warrior,23147,29560-000
Indonesia,Aengceleng,Pearson,1,
Kazakhstan,Egindiköl,Glacier Hill,3721,
Japan,Narutō,Sherman,35,289-1343
Burkina Faso,Sapouy,Lakewood,99,
China,Fankeng,Straubel,62,
Poland,Stronie,Sherman,66,34-145
China,Ralung,Oneill,83,
Philippines,Santa Lucia,Calypso,10,2712
China,Jidong,Comanche,6,
Peru,Usicayos,Colorado,4076,
Portugal,Reriz,Karstens,5,3600-587
Portugal,Santa Cruz das Flores,Sugar,69788,9970-305
China,Huangbei,Miller,376,
United States,Fort Wayne,Dennis,58,46852
Iraq,Kufa,Myrtle,58090,
Indonesia,Ponggeok,Northridge,1167,
Bosnia and Herzegovina,Vukovije Donje,Lotheville,3711,
Peru,Choros,Melvin,8681,
Philippines,Gibato,Mccormick,23945,5005
Montenegro,Rožaje,Ryan,282,
China,Qukou,3rd,3,
China,Qinghe,Vidon,2436,
China,Tangkeng,Kedzie,7586,
Philippines,Alibunan,Garrison,4,5042
Greece,Ágio Pnévma,Packers,34,
Sweden,Växjö,Lake View,721,355 92
Indonesia,Cilated,Algoma,85,
Russia,Ramon’,Tony,84,396026
Sierra Leone,Jojoima,Ronald Regan,99984,
North Korea,Sinmak,Merchant,84799,
China,Tiandu,Stang,63,
China,Beijiang,8th,256,
Greece,Néa Filadélfeia,Annamark,7,
Mayotte,Sada,Milwaukee,6,97640
Poland,Rychtal,Sachs,7417,63-630
Russia,Североморск-3,Lunder,6,184606
Mexico,Benito Juarez,Waywood,969,29120
China,Mashan,Vahlen,999,
Kazakhstan,Kachar,Sachtjen,0,
China,Sanhe,Green Ridge,49596,
Indonesia,Mayong,Park Meadow,35,
Serbia,Aleksinac,Karstens,3,
Russia,Voznesenskoye,Fulton,763,607340
Argentina,Las Heras,Fremont,47,9017
Czech Republic,Postupice,Florence,602,257 01
Philippines,Matalam,Mcbride,7,9406
Sweden,Rönninge,Maple Wood,47859,144 40
Indonesia,Long Beluah,Muir,1231,
Sweden,Sjöbo,Banding,589,275 80
Greece,Kallithéa,Hooker,938,
China,Sanchang,Forest,34354,
China,Xiwanzi,Farwell,84,
Czech Republic,Velké Němčice,Montana,105,691 63
China,Laidian,Stoughton,140,
Argentina,Chorotis,Lyons,1,3733
China,Laohugang,Mosinee,9272,
Poland,Cisownica,Sheridan,210,43-450
China,Banqiao,Blackbird,4655,
Honduras,Jamalteca,Truax,4,
Greece,Pentéli,Raven,659,
France,Amiens,Spohn,34,80048 CEDEX 1
Indonesia,Bandungsari,Sugar,4013,
Brazil,Coari,Hoepker,68,69460-000
Brazil,Santa Cruz do Capibaribe,Old Shore,12,55190-000
Indonesia,Were,Toban,4,
Albania,Burrel,Schlimgen,4613,
Russia,Yubileyny,International,8,249087
Tunisia,Kairouan,Arrowood,3115,
Guatemala,Barberena,Buell,2,06002
Brazil,Freguesia do Ribeirao da Ilha,Graedel,9,38310-000
Russia,Rybatskoye,Glacier Hill,999,196851
Iran,Bābol,Schmedeman,392,
Philippines,San Agustin,Raven,980,8305
Japan,Kuragaki-kosugi,Dryden,6970,939-2759
Pakistan,Qila Abdullāh,Monument,7749,86201
China,Jianghai,Pepper Wood,82,
Poland,Jawornik Polski,Stone Corner,1044,37-232
Uzbekistan,Kattaqo’rg’on,Tennyson,938,
Canada,Morinville,Dexter,19,T8R
Indonesia,Kedungwringin,Bunting,4795,
France,Crépy-en-Valois,Lyons,27,60804 CEDEX
Colombia,Mistrató,Del Mar,20972,664028
Nigeria,Itu,Atwood,43,
Indonesia,Tagog,Pawling,753,
China,Jinli,Dixon,82,
Colombia,Miranda,Dunning,43,191529
Japan,Noshiro,Kim,98145,921-8804
United Kingdom,Brampton,Rieder,19739,NR34
Philippines,Marantao,Calypso,80136,9711
Colombia,Magangué,Jenifer,6,132527
Kazakhstan,Aqtoghay,Nevada,1992,
Colombia,Acacías,Logan,87,507009
Poland,Brzeźnica,Nobel,1,68-113
Russia,Krasnodar,Lyons,5,385129
China,Baiyang,Michigan,0,
China,Gaoshibei,Londonderry,749,
Indonesia,Kubang,Northfield,9,
Russia,Nyuksenitsa,Bartillon,597,161396
Philippines,Pateros,Stuart,69,1930
Dominican Republic,Jarabacoa,Sachtjen,32235,10801
Peru,Huaccana,Fairview,486,
Macedonia,Čelopek,Claremont,3678,1227
China,Licheng,Manufacturers,22697,
Russia,Plast,Oakridge,8,457031
Nigeria,Afikpo,Scoville,594,
Morocco,Rabat,Toban,9565,
Philippines,Narvacan,East,8791,2704
Indonesia,Medalem,Londonderry,1,
Russia,Verkhniy Baskunchak,Mayfield,868,416530
Nigeria,Owerri,Del Mar,2536,
Serbia,Lazarevac,Haas,7,
China,Hongqi,Dovetail,26,
China,Xinxikou,Esch,32,
Croatia,Sarvaš,Huxley,4192,31000
China,Zhenxi,Hoard,4,
Poland,Annopol,Grover,87372,23-235
Philippines,Piñahan,Sugar,61,1100
Switzerland,Basel,Cascade,5,4024
China,Shalang,Bayside,62,
Ireland,Castleblayney,Autumn Leaf,670,A75
China,Baojiadian,Anniversary,9,
Ivory Coast,Ferkessédougou,Bellgrove,8,
China,Xiaojiangba,Crownhardt,24808,
Yemen,Ḩabīl al Jabr,Forest,14,
China,Xiejia,Mayfield,90720,
Canada,Morinville,Fulton,4919,T8R
North Korea,Haeju,Michigan,922,
Sweden,Umeå,Westport,5975,907 04
France,Corbeil-Essonnes,Fisk,602,91104 CEDEX
Russia,Shchelkovo,Northland,993,306455
Papua New Guinea,Kainantu,Ridge Oak,63,
Malta,Żebbuġ,Oriole,3,ZBB
Argentina,El Carril,Golf View,9161,4421
Russia,Korenovsk,Eagle Crest,5585,353187
Mexico,Guadalupe Victoria,2nd,32,30414
Mexico,Reforma,Green,64205,32600
Bulgaria,Sozopol,Badeau,13,8131
Yemen,Ḩammām Damt,Sugar,79,
China,Guanghai,Graedel,2315,
Mexico,El Limon,Norway Maple,21314,63174
China,Jijiang,Fieldstone,0,
Kazakhstan,Shu,Scofield,18429,
Czech Republic,Uherský Ostroh,New Castle,38,687 24
Peru,Apongo,Brickson Park,5409,
United States,Toledo,Monica,826,43605
Pakistan,Khairpur Nathan Shāh,Killdeer,84256,79001
Russia,Kosino,Del Sol,14,612425
China,Luobuqiongzi,Maryland,86,
Turkmenistan,Mary,Hoffman,43764,
United States,Cincinnati,Buell,48253,45296
Pakistan,Khuzdār,Clarendon,2,37251
Russia,Rutul,Sloan,52,368700
China,Balin,Lillian,8,
China,Xinglongchang,Sachtjen,6,
Guatemala,Mataquescuintla,Bayside,4801,06005
Indonesia,Tapan,Badeau,90,
United States,Colorado Springs,Dorton,52,80945
Philippines,Napnapan,Express,35161,5021
Syria,Al Ḩajar al Aswad,Forest Run,1,
Philippines,Esperanza,Westridge,90,8513
China,Tangzhuang,Brickson Park,67,
Syria,Ma‘lūlā,Westridge,92,
Poland,Ośno Lubuskie,Golf Course,6285,69-220
Sri Lanka,Vavuniya,Garrison,7,43000
United States,Memphis,Pine View,8,38197
China,Baiyang,Meadow Vale,4228,
China,Daji,Bonner,745,
Hungary,Szolnok,Manufacturers,43,5009
China,Chengkou,Daystar,40443,
China,Shazhouba,Eastwood,147,
Philippines,Mabalacat,Ohio,94328,2010
Colombia,Sabaneta,Caliangt,5754,055457
China,Keyi,Caliangt,3,
Philippines,Tawan tawan,Dexter,6,8610
Czech Republic,Hanušovice,Maple,1,788 33
Indonesia,Puputan,Valley Edge,54518,
China,Efeng,Oxford,59,
China,Shiren,Vermont,2323,
Russia,Ruzayevka,Fordem,8914,431469
China,Wangping,Express,54324,
Indonesia,Banjarjo,Hallows,9,
Philippines,Masaraway,Maple,998,3714
Benin,Parakou,Bluestem,509,
China,Xiadong,Mallory,9,
China,Hongqi,Milwaukee,4,
Brazil,Viseu,Russell,82651,68620-000
France,Marseille,Garrison,80,13298 CEDEX 20
Ivory Coast,Daloa,Victoria,3000,
United States,Cincinnati,Superior,9843,45213
Mongolia,Javarthushuu,Wayridge,52016,
Dominican Republic,Pescadería,Birchwood,422,11207
France,Rambouillet,Saint Paul,92,78514 CEDEX
China,Dingzigu,Mitchell,0,
Philippines,Burgos,Spenser,74,8424
Guatemala,Champerico,4th,57693,11007
Ukraine,Chervonopartyzans’k,Oxford,4489,
United States,Albany,Carpenter,66234,12205
Yemen,Bayt ‘Adhāqah,Crest Line,479,
Finland,Reisjärvi,Brentwood,38,85900
Indonesia,Baratan,Morrow,23838,
China,Shiren,Crownhardt,77644,
Mexico,Buenavista,Northview,8,38796
China,Kunyang,Truax,55,
Brazil,Ferraz de Vasconcelos,Maywood,422,08500-000
Indonesia,Cibingbin,Starling,896,
Portugal,Castanheira do Campo,Doe Crossing,26,3025-511
Czech Republic,Nýřany,Granby,66,330 23
China,Tiechanggou,Golf,82,
Argentina,Plaza Huincul,Mariners Cove,4119,8318
Brazil,Arcos,Red Cloud,30,35588-000
Indonesia,Maliiha,Lighthouse Bay,50988,
Brazil,Bom Jesus da Lapa,Badeau,39,47600-000
China,Youludu Sibage,Gina,33709,
Brazil,Arapongas,Thackeray,17,86700-000
Brazil,São José de Mipibu,Londonderry,67,59162-000
Brazil,Matozinhos,Elka,13304,35720-000
Argentina,Campo Viera,Mayer,6,3362
Brazil,Rio das Pedras,Graedel,5,13390-000
Brazil,Pitanga,Di Loreto,10782,85200-000
Japan,Chitose,Dakota,1,990-0812
Sweden,Sollebrunn,Clyde Gallagher,49029,466 92
Indonesia,Munjungan,Mayfield,61,
France,Nancy,Hansons,8,54021 CEDEX
China,Cheping,Larry,0,
South Africa,Worcester,Haas,758,6870
Poland,Kańczuga,Jenifer,6,37-220
Japan,Shinshiro,Fuller,679,463-0056
Sweden,Burträsk,Morrow,74,937 91
Canada,Leduc,Waubesa,85,T9E
Philippines,Pasacao,Carpenter,0,4417
Tanzania,Misungwi,Anderson,46851,
China,Hexi,Fairfield,9301,
Egypt,Manfalūţ,Lukken,907,
Peru,Chiguirip,Acker,39795,
Canada,Varennes,Chive,4,J3X
Turkey,Yeniköy,Coolidge,9,61300
Western Sahara,Laâyoune / El Aaiún,Thierer,193,
China,Yingde’er,Autumn Leaf,34,
Poland,Pyrzyce,Michigan,3,74-200
Kazakhstan,Atyrau,Bonner,33869,
Poland,Czarna,Farragut,9,39-215
Russia,Staryye Atagi,Corben,1,366303
Gambia,Georgetown,Texas,74,
China,Dandai,Warbler,83345,
Indonesia,Karangbalong,South,742,
Venezuela,Valencia,Bobwhite,248,
Greece,Asopía,Truax,8924,
Thailand,Thung Khru,Forest,977,10140
Philippines,Pigcawayan,Oneill,147,9412
Malawi,Mangochi,Fairview,28251,
Colombia,Sabaneta,Bay,75716,055457
South Africa,Bronkhorstspruit,Heffernan,23900,1028
Philippines,Gambalidio,Service,8521,4025
Russia,Gorodishche,Prairieview,16,403003
Nigeria,Awgu,Hanson,8,
China,Hepu,North,7919,
Indonesia,Kabongan Kidul,Tennessee,2,
Portugal,Monte Redondo,Aberg,21,2565-522
China,Huangjingba,Charing Cross,181,
Afghanistan,Qal‘ah-ye Na‘īm,Weeping Birch,26,
Nigeria,Wamba,Doe Crossing,2184,
Peru,Yuyapichis,Nova,666,
Russia,Maslovka,Knutson,14506,394077
Georgia,Kveda Chkhorots’q’u,Dawn,51124,
Pakistan,Muzaffargarh,Clarendon,45,34201
Indonesia,Labuhantanggabesar,Crescent Oaks,11,
China,Fuliang,Magdeline,46921,
Afghanistan,Markaz-e Woluswalī-ye Āchīn,Jana,7003,
Zimbabwe,Hwange,7th,94,
Portugal,São Tomé,Cordelia,2,4795-549
Argentina,Avellaneda,Caliangt,676,5212
Comoros,Mtsamdou,American,808,
China,Ningxin,Dixon,7,
Brazil,Tanguá,Warbler,1,24890-000
Morocco,Aknoul,Dovetail,889,
Peru,San Lorenzo,Fairfield,760,
Philippines,Danao,Leroy,563,6344
China,Jiangcun,Bayside,591,
Russia,Novopokrovskaya,Pankratz,87476,353029
Philippines,Salimbalan,1st,92,8706
Croatia,Krasica,Farmco,5496,52460
Indonesia,Parigi,Meadow Ridge,8365,
Sweden,Alfta,Stoughton,84,822 30
Serbia,Bačka Topola,Golf,957,
Zimbabwe,Chivhu,Lotheville,395,
Syria,‘Ayn Ḩalāqīm,Sunfield,23865,
Greece,Asopós,Elmside,12,
Thailand,Bang Ban,Bartillon,7950,13250
Indonesia,Cikeper,Washington,8,
China,Taiping,Amoth,4,
Brazil,Sorocaba,Norway Maple,1,18000-000
Indonesia,Cikembang,Kenwood,58788,
Portugal,Ínfias,Caliangt,15,4815-075
Iraq,Balad,Gulseth,87194,
China,Renfengzhuang,Porter,4,
Saudi Arabia,Ţubarjal,Corry,7391,
United States,Los Angeles,Lighthouse Bay,3,90055
France,Cachan,Red Cloud,6684,94234 CEDEX
Tanzania,Naberera,Dryden,155,
Yemen,‘Amd,Lyons,6,
Vietnam,Tân Châu,Cambridge,3932,
Philippines,Bunol,Norway Maple,34615,3115
Russia,Magan,Golf View,90,677904
Philippines,Upi,Hayes,7,1630
Sweden,Stockholm,Clove,656,116 92
United Kingdom,Dean,Pleasure,4589,OX7
Sudan,Wagar,Bowman,49,
Indonesia,Baopukang,Schurz,9639,
Finland,Paltamo,Debra,365,88300
China,Fenghuang,Doe Crossing,0,
Albania,Bubullimë,Oakridge,9,
China,Wan’an,Dwight,5,
United States,Wilmington,Marcy,218,19805
Philippines,Caba,Maple,448,2502
Portugal,Igreja,South,56,4540-579
Sweden,Angered,Merry,4,424 10
Ireland,Ballymun,Oak,5928,D11
Colombia,Florencia,Pawling,61,195047
France,Champigny-sur-Marne,Orin,26,94504 CEDEX
Guatemala,San Antonio Suchitepéquez,Florence,65,10030
Sweden,Sundsvall,Cardinal,35,855 90
Indonesia,Cibaregbeg,Tennessee,34839,
Brazil,Ouricuri,Hermina,9,56200-000
Ukraine,Stari Bohorodchany,Kedzie,2,
Ukraine,Terpinnya,Wayridge,2,
South Africa,Glencoe,Elmside,8,2930
Sweden,Stockholm,East,5693,116 30
Argentina,Curuzú Cuatiá,Meadow Vale,127,3466
Portugal,Igreja,Hallows,22,5050-401
United States,Oakland,Colorado,354,94622
Sweden,Lerum,Luster,3,443 33
Mongolia,Bayasgalant,Myrtle,8446,
Brazil,Ceres,Bonner,65,76300-000
Argentina,Mattaldi,Sugar,8,6271
China,Kezilei,Golf Course,273,
China,Taoyuan,Farwell,2486,
China,Dongming,Green Ridge,6,
China,Yanglang,Muir,898,
Sweden,Stockholm,Eagan,41,121 29
Indonesia,Waihibar,Elgar,4131,
China,Taoyao,Acker,36632,
Canada,Salaberry-de-Valleyfield,David,782,J3Y
China,Xiaoguwei,Crest Line,51,
France,Antony,Buell,31,92762 CEDEX
Portugal,Santa Luzia,Mendota,3,9940-125
Peru,Pampas,Susan,699,
Indonesia,Gandong,Northview,1817,
China,Huangtian,Westend,513,
Bulgaria,Asen,Clemons,7,6151
Ukraine,Velykoploske,Little Fleur,79190,
Chile,Illapel,Helena,5,
Bosnia and Herzegovina,Skokovi,Laurel,4,
France,Orléans,Center,6201,45032 CEDEX 1
Sweden,Hagfors,Carberry,14,683 24
Philippines,Luksuhin,Kings,9748,4221
Moldova,Tiraspol,Talmadge,823,MD-3300
Argentina,Villa Santa Rita,Pawling,50,4600
China,Guanshui,Petterle,42,
China,Lhakangtang,Carioca,92,
China,Aiximan,Warner,30,
Philippines,Tinambac,Union,532,4426
Portugal,Belverde,Canary,5,2845-487
Indonesia,Mulandoro,Fordem,8,
Russia,Reshetnikovo,Becker,96,141667
France,Suresnes,Debra,4,92154 CEDEX
Albania,Sevaster,Messerschmidt,9,
Greece,Asopós,Hagan,871,
Russia,Primorskiy,Mcbride,914,692769
Portugal,Bertelhe,Green Ridge,2,3505-143
China,Sandaotong,Dahle,413,
Russia,Lyubokhna,Division,36,242622
Latvia,Bolderaja,Lillian,68,
South Africa,Boshof,Onsgard,5,8340
Uganda,Soroti,Grayhawk,5038,
Philippines,Las Piñas,Forest,8310,1752
Finland,Köyliö,Lillian,1658,27860
Peru,Chumpi,Ronald Regan,50760,
Indonesia,Depok,Calypso,9554,
France,Ajaccio,Katie,5370,20195 CEDEX 1
Cyprus,Kato Pyrgos,Mccormick,5,
Philippines,Calape,Wayridge,6,6328
Portugal,Soutinho,Sachs,119,4650-530
"Bonaire, Saint Eustatius and Saba ",Oranjestad,Northview,82,
Russia,Ursk,1st,35,242467
Russia,Untolovo,Mockingbird,652,431783
Panama,La Peña,Meadow Valley,24647,
Mongolia,Tsul-Ulaan,Spaight,3149,
Mexico,Emiliano Zapata,Del Sol,4824,61607
Portugal,Alcains,Bonner,4933,6005-005
France,Strasbourg,Alpine,1807,67024 CEDEX 1
Philippines,Santa Fe,Holy Cross,59588,6513
China,Shihuiyao,Dayton,1,
Ukraine,Krasnotorka,Ruskin,60608,
Saint Kitts and Nevis,Trinity,Dawn,94373,
United States,Corpus Christi,Esker,5004,78405
Bosnia and Herzegovina,Nevesinje,Morningstar,558,
China,Zouma,Carpenter,4842,
Spain,Donostia-San Sebastian,Macpherson,217,20015
Japan,Sōja,John Wall,967,719-1171
Indonesia,Mulyoagung,Porter,57198,
China,Xinshiba,Northland,2,
China,Fuhe,Miller,88,
China,Xinfa,Melrose,2,
Portugal,Fornelos,Lindbergh,0,5030-213
Kazakhstan,Talghar,Hayes,56,
Kazakhstan,Shchūchīnsk,Carberry,9224,
Cuba,Ciego de Ávila,Morningstar,638,
China,Zhangpu,Gulseth,65,
Brazil,Ilhéus,Monterey,39,45650-000
Russia,Nakhabino,Little Fleur,6576,433532
Canada,Notre-Dame-des-Prairies,Cody,56298,K6V
Indonesia,Parlilitan,Dennis,0,
China,Luxi,Arkansas,2,
Yemen,Ḩarīb,Londonderry,18123,
Portugal,Chãos,Goodland,10,4960-160
Russia,Shcherbinka,Ruskin,656,142720
Colombia,Pasto,Farmco,8542,520039
Brazil,Costeira do Pirajubae,Clemons,6,88000-000
China,Zaoxi,Gerald,150,
Sweden,Umeå,Everett,619,904 04
Jordan,Aydūn,Sunbrook,3,
Syria,Ţayyibat al Imām,Butterfield,0,
Indonesia,Sedati,Menomonie,0,
China,Xiyang,Burrows,1175,
Nigeria,Abuja,Claremont,21626,
Canada,Chambly,Welch,3,J3L
South Africa,Flagstaff,Becker,12,4821
Poland,Bujaków,Prairie Rose,8125,43-356
China,Shazhouba,Park Meadow,45755,
Honduras,El Paraíso,Esker,70,
Sweden,Sundsvall,Waubesa,71,851 83
Pakistan,Bhalwāl,Thompson,80,24011
Indonesia,Tlogocilik,Schlimgen,54,
Guatemala,Joyabaj,Myrtle,107,14012
Poland,Bojadła,Jana,3,66-130
China,Louguan,Surrey,635,
China,Tianjin,Homewood,7415,
Russia,Khilok,American,2,673201
Poland,Orneta,Ohio,6837,11-130
Bangladesh,Jamālpur,Everett,72,2011
Indonesia,Pajeksan,Granby,9,
Russia,Myski,Schiller,9,652849
Syria,Al Ḩarāk,Northfield,181,
Portugal,Rio Covo ( Santa Eulália ),Coolidge,21,4755-484
Russia,Kromy,Muir,615,303211
Nepal,Hitura,Truax,96,
China,Hohhot,Hoepker,73,
Czech Republic,Bystřany,Petterle,294,417 61
China,Bulongji,Transport,8,
United States,Dallas,Mandrake,7123,75323
China,Tianhu,Straubel,479,
Indonesia,Napel,Vernon,45700,
Argentina,Ordóñez,Dakota,18,2555
China,Qingliu,Bultman,33,
Japan,Obama,Dapin,32799,976-0022
South Africa,Margate,Erie,7200,4281
Poland,Gostyń,South,21692,63-816
Indonesia,Apuri,Florence,3,
China,Shanhe,Fairview,49,
Paraguay,San José,Nova,76042,
China,Shuangpu,Thompson,67712,
Philippines,San Ramon,Stuart,23382,4425
Philippines,Dinaig,Little Fleur,510,8310
Indonesia,Terbangan,Mosinee,54,
Greece,Loutrós,Darwin,88844,
China,Yitulihe,Upham,7,
Netherlands,Tilburg,Tony,5566,5044
Malaysia,Johor Bahru,Northview,879,80668
Mongolia,Dzüyl,Lerdahl,675,
Brazil,Pitangueiras,Northwestern,130,14750-000
Pakistan,Lodhrān,Fulton,6,59320
United States,Charlotte,Fallview,3,28210
China,Yixin,Nevada,812,
Panama,Las Palmas,Dapin,564,
Russia,Tatarka,Sunbrook,383,356235
Indonesia,Pondokkaha Kelod,Hayes,60,
Colombia,Facatativá,Anthes,81,253017
Bangladesh,Saidpur,Ludington,87074,5311
Venezuela,Anaco,Maple Wood,39866,
Philippines,Hinunangan,Shasta,391,6608
Thailand,Phitsanulok,Atwood,4290,65000
Thailand,Hat Yai,Monterey,37559,90110
Thailand,Tha Ruea,Hagan,6,13130
Belarus,Masty,Coolidge,35402,
Indonesia,Miribanteng,Sherman,694,
France,Lille,Chive,410,59784 CEDEX 9
Kenya,Keruguya,Del Sol,85,
China,Guishan,Burning Wood,1845,
Norway,Harstad,Quincy,5176,9406
China,Jingmao,7th,6,
China,Lantian,Butterfield,5,
Portugal,Cential,Surrey,93480,3070-085
China,Huangtudian,Killdeer,379,
Iran,Marvdasht,Debra,8,
Russia,Zapolyarnyy,Transport,4,184433
Indonesia,Citangtu Kaler,Bultman,50,
Poland,Bobrowice,Columbus,3366,66-627
Indonesia,Mafa,Pine View,9264,
Indonesia,Salanegara,Village,4,
Iran,Kīsh,Randy,7312,
Russia,Verkhov’ye,Eagan,73137,303720
Philippines,Suba,Thierer,565,2433
Kazakhstan,Maleevsk,Hanson,278,
Indonesia,Rukunlima Bawah,Grasskamp,68,
Dominican Republic,Juncalito Abajo,Ohio,983,10801
Indonesia,Krajan Ngerdani,Dapin,73883,
Russia,Miatli,Grim,475,368156
Sweden,Stockholm,Donald,10062,113 80
Malaysia,Melaka,Forest,508,75910
China,Zhangjiang,Southridge,3,
Indonesia,Tanjungrejo Lor,8th,304,
Canada,Napanee Downtown,Oak Valley,28260,M5E
France,Montauban,Gulseth,54709,82070 CEDEX
China,Zangkaxa,Leroy,433,
Luxembourg,Ell,Monument,824,L-8531
Portugal,Torrão,Redwing,25929,7595-048
Argentina,Valcheta,Barby,376,8536
Sweden,Nacka,Scoville,8651,131 46
Argentina,Colonia Wanda,Green Ridge,862,3376
Russia,Imeni Tsyurupy,Sugar,96109,142649
Nigeria,Bununu Kasa,Amoth,0,
France,Aurillac,8th,0,15015 CEDEX
Brazil,Caruaru,Village,4946,55000-000
China,Magutian,Corscot,808,
Serbia,Štitar,Bellgrove,42363,
Argentina,Villa General Belgrano,Bunker Hill,85,5195
China,Wangyi Zhendian,Alpine,2429,
Afghanistan,Jurm,Sycamore,2617,
Philippines,Prosperidad,Surrey,61,4107
Brazil,Itambé,Bultman,3497,55920-000
China,Yulin,Thackeray,7831,
Colombia,Pensilvania,Basil,446,173069
Dominican Republic,Santa Cruz de El Seibo,Stuart,5306,10905
France,Wissous,Schmedeman,4,91324 CEDEX
Indonesia,Ketara,Redwing,7,
Belarus,Minsk,Northridge,2799,
Poland,Kabaty,Lakewood,0,05-540
Thailand,Chom Bueng,Ryan,8,70150
Andorra,Sant Julià de Lòria,Myrtle,82,AD600
South Korea,Goseong,Delladonna,3058,
Greece,Íasmos,Aberg,799,
Indonesia,Nila Dua,Porter,9307,
Italy,Padova,Heath,98987,35129
Indonesia,Lubukgadang,Union,53231,
Russia,Perelyub,Hagan,3,413750
France,Argentan,Chive,84183,61891 CEDEX 9
Russia,Kargasok,Raven,4626,636708
China,Hantai,Chive,3,
Afghanistan,Khanabad,Lindbergh,2504,
France,Rochefort,Sunbrook,934,17314 CEDEX
Philippines,Sinacaban,Lerdahl,3,7203
Cuba,Primero de Enero,Truax,5838,
Belarus,Narach,Mayer,368,
Moldova,Saharna,Russell,65082,MD-5431
Tanzania,Kasulu,Hoffman,2,
China,Balbagay,Thierer,957,
Japan,Tarumizu,Eastlawn,70,861-0133
Argentina,Carlos Casares,Fremont,4731,6530
Japan,Inashiki,Blackbird,32567,925-0563
Philippines,San Francisco,Sachs,50,8501
China,Yimamu,Linden,83702,
China,Kangshan,Bartelt,54753,
Thailand,Ban Mai,Warner,6198,50260
Indonesia,Kadubera,Dovetail,0,
Tanzania,Biharamulo,Karstens,14765,
Sweden,Solna,Maple,30,171 05
Belarus,Horad Pinsk,Ilene,2,
China,Wuxing,Weeping Birch,17,
France,Bagnolet,Summerview,62,93175 CEDEX
Afghanistan,Sangar Sarāy,Del Mar,15258,
Brazil,Alfenas,Cambridge,683,37130-000
France,Tarbes,Macpherson,46700,65911 CEDEX 9
Japan,Nagai,Russell,64792,986-0303
China,Wuguishan,4th,53,
Brazil,Blumenau,Pleasure,91113,89000-000
Croatia,Čačinci,Shelley,27,33514
Philippines,Bagacay,Wayridge,0,1427
Japan,Kikuchi,Northwestern,12855,861-1686
Nigeria,Effium,Hudson,58036,
China,Niaohe,Carey,2401,
United States,Saint Petersburg,Graceland,46351,33715
Philippines,Uyugan,Almo,453,3903
Argentina,Chepes,Jenifer,673,5470
China,Pingpo,Scoville,59,
China,Jinshan,Independence,2323,
China,Jieheshi,Clemons,6981,
Libya,Yafran,Tennessee,2521,
Peru,Mollebamba,Valley Edge,2718,
France,Paris 19,Novick,817,75949 CEDEX 19
Thailand,Kranuan,Garrison,85,40170
Brazil,Muriaé,Green Ridge,5,36880-000
Philippines,Tamontaka,Monterey,1,9708
Indonesia,Kauditan,Bonner,65,
Sweden,Stockholm,Talmadge,83,102 27
Portugal,Avelinha,Monica,70323,3505-125
Bolivia,Trinidad,Mifflin,2,
United States,Wichita,Schmedeman,4639,67260
China,Babao,Warbler,1804,
China,Dingbao,Sage,0,
Peru,Ucuncha,Debs,7,
Bolivia,Villazón,Barby,785,
Sweden,Hallstahammar,Hanover,31,734 91
Ukraine,Verkhnya Rozhanka,Summer Ridge,17204,
Indonesia,Suruhwadang,Welch,8421,
Chile,Puerto Cisnes,Ridgeview,951,
Honduras,San José de Comayagua,Leroy,9511,
Philippines,Maao,Fair Oaks,3,6124
Portugal,Verba,Sutteridge,3873,3810-600
Ireland,Ashbourne,Montana,31195,A84
Russia,Neftegorsk,Warbler,44238,446600
Argentina,Ceibas,Maywood,922,2823
Bulgaria,Aheloy,Heffernan,468,8216
Russia,Uzunovo,Prairie Rose,2812,142960
China,Huishi,Dorton,3,
Russia,Timiryazevskoye,Utah,58844,634510
China,Xiema,Autumn Leaf,6890,
China,Dongkeng,Nevada,82,
South Africa,Plettenberg Bay,Harbort,6,6606
Ethiopia,Inda Silasē,Carpenter,876,
Indonesia,Kamubheka,Barby,77404,
Brazil,Carazinho,Sunnyside,41,99500-000
Mozambique,Mocímboa,Cottonwood,6866,
Japan,Kishiwada,6th,8,571-0002
China,Sanxing,Lerdahl,183,
Estonia,Kuressaare,North,835,
China,Mafeng,Evergreen,12,
Thailand,Sawang Daen Din,Pine View,812,47110
Philippines,Bagumbayan,Kropf,2146,9810
Tanzania,Wete,Center,6661,
Ethiopia,Addis Ababa,Aberg,27984,
Thailand,Pho Si Suwan,Bay,829,31230
Thailand,Phanom Sarakham,Cordelia,5569,24120
China,Nanjie,Spenser,4,
Philippines,Mainit,Onsgard,12155,8407
France,Ivry-sur-Seine,Northport,28950,94852 CEDEX
Dominican Republic,La Romana,Green,995,10805
Indonesia,Perbaungan,Barnett,577,
Ecuador,Guayaquil,Chive,183,
Philippines,Tocok,Anderson,64203,4335
Czech Republic,Horní Štěpánov,Almo,7,798 47
Costa Rica,Ciudad Cortés,Laurel,5,60306
Portugal,Armamar,Eliot,2,5110-125
Russia,Lipin Bor,Autumn Leaf,1,161250
China,Xiongzhou,Sauthoff,6947,
China,Litian,Namekagon,546,
Senegal,Goléré,Sachs,96706,
China,Mugala,Grasskamp,6053,
Indonesia,Sumberjati,East,10,
Finland,Jurva,Dayton,79857,66301
Indonesia,Sidareja,Dahle,9216,
China,Xinsheng,Melody,6181,
Japan,Bibai,Mockingbird,5589,879-0444
Indonesia,Pasirhuni,Golden Leaf,84900,
France,Creil,Beilfuss,32,60315 CEDEX 5
Mayotte,Chirongui,Kropf,24049,97620
France,Roanne,Anderson,8,42335 CEDEX
China,Meicheng,Vidon,4055,
Indonesia,Cipesing,Nobel,999,
Portugal,Outeiro de Polima,Paget,300,2785-505
Portugal,Póvoa,Mcbride,5,3720-029
Czech Republic,Solnice,Havey,200,517 01
Japan,Fujisawa,Monica,211,997-0751
Indonesia,Biyan,Waubesa,96622,
Mexico,Guadalupe,Upham,4,38204
France,Élancourt,Warbler,7306,78990
Bolivia,Cliza,Farmco,996,
Indonesia,Padangsidempuan,Hanson,534,
China,Chenqiao,Twin Pines,86,
Japan,Toyota,Maryland,63564,952-0317
Sweden,Storvreta,Golf,5418,743 91
France,Paris 12,Clarendon,503,75562 CEDEX 12
Poland,Ceranów,Dorton,76,08-322
Brazil,Catalão,Pine View,30,75700-000
Sweden,Stocksund,Dawn,5,182 74
Russia,Chelbasskaya,Orin,7248,353715
Russia,Solnechnogorsk,Bayside,4,141508
Portugal,Castelo,Anderson,80,6120-705
Dominican Republic,Cotuí,Gateway,7,10210
China,Jiusi,Marcy,16,
Democratic Republic of the Congo,Mushie,Pierstorff,18793,
Brazil,Arcoverde,Ludington,1994,56500-000
Peru,Cuenca,West,16218,
China,Gongli,Thierer,86000,
United States,Durham,Huxley,943,27717
Tanzania,Ifakara,Vidon,90,
China,Sigou,Eastwood,816,
China,Jinshiqiao,Cambridge,887,
China,Yangshuo,Lakewood,5142,
Poland,Górki,Mendota,55806,39-306
Portugal,Janas,Sauthoff,856,2710-257
Guadeloupe,Pointe-à-Pitre,Green Ridge,241,97019 CEDEX
Bosnia and Herzegovina,Zborište,Sunnyside,1387,
Morocco,Tiflet,Arapahoe,359,
Colombia,La Tebaida,Sugar,86817,633027
Indonesia,Turus,Mayfield,73220,
Indonesia,Tugu,Butterfield,868,
China,Xiadu,High Crossing,7810,
Ukraine,Volodymyr-Volyns’kyy,Elmside,7805,
China,Nahuo,Talmadge,10655,
Russia,Priyutovo,Garrison,856,452189
Peru,Bellavista,Melody,196,
Indonesia,Susoh,Ridgeway,7829,
China,Yanjiang,Mallard,80744,
Czech Republic,Dolní Sloupnice,Golf View,991,565 53
China,Xianxiang,Oneill,48825,
Sweden,Sala,Burning Wood,8765,733 31
United States,Austin,Dottie,171,78737
China,Xianshui,Sullivan,9,
Portugal,Mértola,Center,3821,7750-321
Poland,Kołaczyce,Harper,97,38-213
Philippines,Nangka,Eastlawn,3,1808
Mexico,Providencia,New Castle,3,35364
China,Daxindian,Cascade,67,
China,Baga Borihe,Fairview,2725,
Malaysia,Kangar,Blue Bill Park,120,01630
Dominica,Castle Bruce,Logan,4,
Philippines,Ferrol,Green,1,5506
Nigeria,Kwale,Nelson,71,
China,Yuwan,Everett,470,
China,Qingfa,Kennedy,994,
Indonesia,Banjar,Sauthoff,18,
Mexico,Niños Heroes,Ohio,921,89359
Ukraine,Konotop,Ridgeview,0,
Venezuela,Aguasay,Sundown,32150,
Portugal,Alvito,8th,975,7920-015
Portugal,Algarvia,Corry,57,9630-224
Kyrgyzstan,Gul’cha,Acker,832,
Nigeria,Isanlu Itedoijowa,Fairview,7952,
China,Duli,Dryden,89,
Brazil,Canguçu,Longview,840,96600-000
Argentina,Carcarañá,Brentwood,58,2138
China,Lichengdao,Bobwhite,82,
Chad,Aozou,Michigan,1,
Mexico,Lazaro Cardenas,Weeping Birch,6,22510
Indonesia,Waekolong,Hauk,2,
Czech Republic,Vilémov,Holmberg,28,783 22
Philippines,Polomolok,Hagan,447,9504
Serbia,Ostojićevo,Blaine,476,
Brazil,Trindade,Becker,920,56250-000
Poland,Kępno,Merrick,77,63-600
France,Massy,Dennis,7,91304 CEDEX
Tunisia,Banī Khaddāsh,Crescent Oaks,157,
China,Liangwa,Amoth,696,
Indonesia,Galis,Trailsway,632,
Brazil,Espírito Santo do Pinhal,Grasskamp,42561,13990-000
Lebanon,Baalbek,Pearson,9,
Russia,Khanino,Buell,28738,301420
El Salvador,Antiguo Cuscatlán,Towne,678,
Moldova,Ialoveni,Victoria,5,MD-6801
China,Erling,High Crossing,698,
Russia,Yakovlevo,Express,78820,309288
Tuvalu,Funafuti,Dwight,1932,
Philippines,Banga,Melvin,962,9511
United Kingdom,Burnside,Sage,99389,EH52
Indonesia,Walakeri,Sunbrook,11,
Japan,Fukuma,Hayes,718,811-3522
Colombia,Villanueva,Graedel,834,130537
Brazil,Presidente Médici,Randy,77,78968-000
Slovenia,Tržič,Debs,1181,4290
Philippines,Mayorga,Sugar,52,6507
Slovenia,Lucija,Forest Dale,1,6333
Indonesia,Andongsari,Vermont,49146,
Brazil,Tremembé,Hooker,641,12120-000
Czech Republic,Ostrov,Truax,24340,594 51
Finland,Harjavalta,Northview,1,29201
Italy,Bergamo,Sachtjen,4732,24129
Czech Republic,Dobrá,Onsgard,7,739 51
China,Shiliting,Sutherland,9021,
Sweden,Täby,Sheridan,56,183 15
China,Dongyangzhen,Twin Pines,37,
Yemen,Suḩayl Shibām,Kipling,7624,
Brazil,Nerópolis,Evergreen,356,75460-000
China,Hecun,Westend,835,
Poland,Baranów,Pennsylvania,41590,96-314
China,Mingguang,Sunnyside,82,
Albania,Gradishtë,Del Mar,16544,
Philippines,Maindang,Steensland,928,1255
El Salvador,Ilopango,Oneill,4486,
Brazil,Paraíba do Sul,Hudson,8,25850-000
Brazil,Iúna,Hanson,33297,29390-000
Czech Republic,Chropyně,Badeau,16429,768 11
Philippines,Carmen,Fremont,201,9408
Poland,Blachownia,Kingsford,596,42-293
Sweden,Hyltebruk,Chive,14,314 32
China,Gushan,Manufacturers,71,
Indonesia,Kutapanjang,Morrow,43,
Sweden,Sveg,Eastlawn,2481,842 93
Sweden,Stockholm,Lyons,8,113 90
Indonesia,Krajan Curahcotok,Clemons,241,
Brazil,Chapecó,Harper,2449,89800-000
China,Shijia,Dwight,77199,
